{"type":"FeatureCollection", "features": [
{"type":"Feature","geometry":{"type":"Point","coordinates":[4.849833,52.334275,1.7299729066909277]},"properties":{"name":"Seepfadfinder Amsterdam","desc":"Seepfadfinder Amsterdam","description":"Seepfadfinder Amsterdam"},"id":"M4MTA"},
{"type":"Feature","geometry":{"type":"Point","coordinates":[5.157245,52.296871,1.6054753196464466]},"properties":{"name":"Seepfadfinder Festung","desc":"Seepfadfinder Festung","description":"Seepfadfinder Festung"},"id":"UwMzI"},
{"type":"Feature","geometry":{"type":"Point","coordinates":[5.737962,52.384606,0.13080703998032117]},"properties":{"name":"Luxus Hof","desc":"Luxus Hof","description":"Luxus Hof"},"id":"g2OTE"},
{"type":"Feature","geometry":{"type":"Point","coordinates":[5.750894,52.356115,17.085243228381856]},"properties":{"name":"Versprechensplatz","desc":"Versprechensplatz","description":"Versprechensplatz"},"id":"A1ODg"},
{"type":"Feature","geometry":{"type":"Point","coordinates":[6.134751,52.370783,1.682120835874946]},"properties":{"name":"Bauernhof mit Schafen","desc":"Bauernhof mit Schafen","description":"Bauernhof mit Schafen"},"id":"A3Mzg"},
{"type":"Feature","geometry":{"type":"Point","coordinates":[6.131661,51.994755,11.749128382001977]},"properties":{"name":"Familie","desc":"Familie","description":"Familie"},"id":"UwODQ"},
{"type":"Feature","geometry":{"type":"Point","coordinates":[6.390281,51.758038,20.158785181680038]},"properties":{"name":"Reeser Kanu Club","desc":"Reeser Kanu Club","description":"Reeser Kanu Club"},"id":"c3MTE"},
{"type":"Feature","geometry":{"type":"Point","coordinates":[6.792327,51.448767,33.51320310351513]},"properties":{"name":"Kanuclub Ackerfähre","desc":"Kanuclub Ackerfähre","description":"Kanuclub Ackerfähre"},"id":"UxOTE"},
{"type":"Feature","geometry":{"type":"LineString","coordinates":[[6.1988251,52.12519],[6.199603,52.125393],[6.2005927,52.127921],[6.1990612,52.127893],[6.1974331,52.127987],[6.1966472,52.12824],[6.1959123,52.128933],[6.1957138,52.129411],[6.195872,52.130111],[6.1966606,52.131494],[6.1974116,52.132322],[6.1986079,52.133392],[6.1989002,52.133881],[6.199147,52.135378],[6.1990773,52.135755],[6.1982324,52.135832],[6.1972131,52.136324],[6.1967223,52.13642],[6.1950137,52.137266],[6.194488,52.137989],[6.1948447,52.138636],[6.1945416,52.138836],[6.19334,52.138998],[6.1922832,52.138744],[6.1918031,52.138905],[6.1905317,52.142585],[6.1905317,52.143215],[6.1896144,52.143569],[6.1848052,52.142464],[6.1845826,52.14225],[6.1849179,52.14151],[6.1846792,52.14056],[6.1838316,52.140766],[6.1845182,52.141386],[6.1845504,52.141732],[6.1839577,52.142815],[6.1834775,52.14345],[6.1833783,52.144491],[6.1827882,52.146662],[6.1823,52.14745],[6.1814471,52.149534],[6.1809026,52.150352],[6.1795159,52.151444],[6.1784403,52.152057],[6.1786066,52.153212],[6.1786093,52.154468],[6.1791565,52.155598],[6.1797439,52.156243],[6.179701,52.156845],[6.1783894,52.158124],[6.177971,52.158922],[6.1778771,52.160607],[6.1775284,52.16142],[6.1768498,52.162443],[6.176831,52.164141],[6.1766808,52.164679],[6.1759244,52.165785],[6.1750769,52.166453],[6.1740469,52.167012],[6.1724563,52.168369],[6.1713405,52.169574],[6.1708577,52.170529],[6.170729,52.171429],[6.1702703,52.172618],[6.1695193,52.173607],[6.1688944,52.17403],[6.1665126,52.174959],[6.1656757,52.175601],[6.164796,52.17829],[6.1641951,52.179852],[6.1642059,52.18069],[6.1616524,52.180875],[6.1610516,52.180843],[6.1574091,52.180362],[6.1536836,52.179663],[6.1529084,52.179616],[6.1506661,52.179877],[6.1476379,52.180055],[6.146793,52.180714],[6.1457818,52.181181],[6.1440705,52.181099],[6.1435287,52.181402],[6.1432954,52.182043],[6.1427133,52.182482],[6.1433088,52.18316],[6.1445506,52.184217],[6.1448698,52.18491],[6.146058,52.185079],[6.1466669,52.185633],[6.1490138,52.188213],[6.1496656,52.188527],[6.1520072,52.188631],[6.1548825,52.188235],[6.1577954,52.187899],[6.1584901,52.187932],[6.1585571,52.188356],[6.1578893,52.189229],[6.1572241,52.18982],[6.1567788,52.19045],[6.1560332,52.192036],[6.1554726,52.192727],[6.1550998,52.19492],[6.1548879,52.195326],[6.1555209,52.197561],[6.1565643,52.199704],[6.1564999,52.200132],[6.1575486,52.200225],[6.1592706,52.201139],[6.1600377,52.20167],[6.163715,52.202481],[6.166416,52.202382],[6.1682721,52.202537],[6.1689212,52.202813],[6.1703133,52.204095],[6.1709999,52.204544],[6.171531,52.205681],[6.1720004,52.205872],[6.1777939,52.207466],[6.1785986,52.207646],[6.1802669,52.20758],[6.1806451,52.207798],[6.1806103,52.20948],[6.1804305,52.210501],[6.1804788,52.211299],[6.1807712,52.21246],[6.1805325,52.213311],[6.1785208,52.214041],[6.177751,52.214031],[6.1764287,52.214489],[6.1752807,52.2147],[6.1741005,52.21514],[6.1732395,52.21564],[6.1731188,52.21611],[6.1721908,52.2167],[6.1710401,52.21776],[6.1687522,52.220579],[6.1680495,52.221064],[6.1646806,52.223151],[6.1635273,52.224064],[6.1620467,52.226879],[6.1608719,52.229],[6.1596112,52.231006],[6.1590158,52.23297],[6.1589756,52.233743],[6.1585491,52.234932],[6.1588495,52.236627],[6.1596542,52.238252],[6.1596622,52.238552],[6.155883,52.246045],[6.1551266,52.246844],[6.1539706,52.247222],[6.1535226,52.2478],[6.1519267,52.249549],[6.151511,52.249764],[6.1444407,52.251907],[6.143239,52.252454],[6.1394303,52.250644],[6.1400499,52.251291],[6.1419489,52.252705],[6.1466749,52.255931],[6.1465542,52.256234],[6.1453768,52.256862],[6.1431827,52.257838],[6.1395242,52.259356],[6.1365818,52.260775],[6.1349296,52.261968],[6.1329045,52.263259],[6.1308982,52.264716],[6.129026,52.266519],[6.1277573,52.267899],[6.1278378,52.268465],[6.1290689,52.269235],[6.1273208,52.270306]]},"properties":{"name":"De lekkere bakker - Wijhe"},"id":"M3MzA"},
{"type":"Feature","geometry":{"type":"LineString","coordinates":[[6.1261668,52.00318],[6.1253648,52.002783],[6.1259066,52.002152],[6.1263974,52.000225],[6.1269285,51.998484],[6.1273362,51.998222],[6.1283313,51.998266],[6.1292513,51.997906],[6.1297529,51.99807],[6.1301123,51.997649],[6.1302679,51.996701],[6.1317297,51.994831]]},"properties":{"name":"DekaMarkt"},"id":"cyODg"},
{"type":"Feature","geometry":{"type":"LineString","coordinates":[[6.776176,51.429669],[6.7772328,51.4298],[6.7785417,51.429728],[6.778716,51.431418],[6.7790942,51.43194],[6.7827528,51.432243],[6.7820044,51.435266],[6.7812749,51.437497],[6.7818864,51.437856],[6.7834582,51.438247],[6.7828064,51.439045],[6.7846598,51.439642],[6.786194,51.440222],[6.7891579,51.441675],[6.790322,51.442166],[6.7918964,51.442581],[6.7939805,51.442875],[6.7944794,51.443123],[6.7945491,51.444136],[6.7944097,51.444739],[6.7945357,51.445553],[6.7939295,51.44597],[6.7922424,51.446822],[6.7915451,51.447292],[6.7912688,51.44788],[6.7913788,51.448362],[6.7922306,51.448573],[6.7923108,51.448775]]},"properties":{"name":"Duisburg Hauptbahnhof - Restaurant Marmaris"},"id":"kzNjM"},
{"type":"Feature","geometry":{"type":"LineString","coordinates":[[5.1572737,52.296848],[5.157841,52.296833],[5.1581307,52.29772],[5.1577391,52.298254],[5.1568218,52.298644],[5.1565831,52.298933],[5.1552768,52.299428],[5.1536112,52.299925],[5.1465999,52.30252],[5.1447655,52.303229]]},"properties":{"name":"Het Dek - September 8, 2025 at 13:49"},"id":"Y4Njk"},
{"type":"Feature","geometry":{"type":"LineString","coordinates":[[5.7386931,52.383547],[5.7397034,52.383508],[5.7418062,52.383685],[5.7421495,52.383102],[5.7430025,52.382642],[5.7434451,52.380678],[5.7440351,52.379823],[5.745395,52.378963],[5.7471572,52.37851],[5.7488095,52.377677],[5.7498207,52.376763],[5.7560058,52.373657],[5.7584171,52.372487],[5.7546352,52.371467],[5.7549249,52.371305],[5.7568856,52.369463],[5.7591923,52.367411],[5.7594498,52.36699],[5.7592754,52.366621],[5.7584815,52.366369],[5.7572933,52.365512],[5.7564269,52.365301],[5.7553836,52.364603],[5.7539003,52.364417],[5.7501828,52.362708],[5.7488282,52.361875],[5.7481684,52.361187],[5.747455,52.359973],[5.7463311,52.359098],[5.7478895,52.358612],[5.7485037,52.358545],[5.7492118,52.358184],[5.7506521,52.357737],[5.7511108,52.357752],[5.7519691,52.358266],[5.7526879,52.358155],[5.7532298,52.357532],[5.7534014,52.356733],[5.751894,52.356689],[5.75087,52.356185]]},"properties":{"name":"Map Point - Leuvenhorst"},"id":"Y5ODQ"},
{"type":"Feature","geometry":{"type":"LineString","coordinates":[[5.7546963,52.371483],[5.7546352,52.371467],[5.7467066,52.368873],[5.7420154,52.367882],[5.7414093,52.367714],[5.7370265,52.36601],[5.738947,52.364224],[5.7409801,52.362183],[5.7430937,52.360335],[5.7444187,52.359713],[5.7463311,52.359098],[5.7463435,52.359107]]},"properties":{"name":"Map Point - Leuvenhorst - Map Point - Leuvenhorst"},"id":"M4MzQ"},
{"type":"Feature","geometry":{"type":"LineString","coordinates":[[5.8535658,52.495254],[5.8526297,52.493682],[5.8524232,52.492738],[5.8525788,52.490883],[5.8519458,52.489499],[5.8519055,52.488135],[5.8513637,52.486896],[5.8504786,52.484475],[5.849167,52.481082],[5.8487969,52.480426],[5.8486976,52.47888],[5.8482336,52.478224],[5.8477454,52.475747],[5.8475201,52.475087],[5.8446958,52.470984],[5.8445,52.470169]]},"properties":{"name":"Picnic Site - Hanse-Radweg"},"id":"czMTA"},
{"type":"Feature","geometry":{"type":"LineString","coordinates":[[5.7435228,52.389533],[5.743647,52.389251],[5.7423909,52.38906],[5.7404302,52.389155],[5.7410257,52.386141],[5.7415648,52.385075],[5.7418062,52.383685],[5.7397034,52.383508],[5.7386931,52.383547]]},"properties":{"name":"Picnic Table - Map Point"},"id":"k5ODU"},
{"type":"Feature","geometry":{"type":"LineString","coordinates":[[6.3902852,51.75804],[6.3901498,51.758578],[6.3894095,51.758744],[6.386274,51.759124],[6.3819395,51.759191],[6.376382,51.759005],[6.3761513,51.75795],[6.3775005,51.752104],[6.3776614,51.750329],[6.3771438,51.749386],[6.3756685,51.749353],[6.3728093,51.748698],[6.3724016,51.748024],[6.3717257,51.748227],[6.3689845,51.748351],[6.3673754,51.748284]]},"properties":{"name":"Reeser Kanu-Club e.V. - EuroVelo 15 - Rhine Route - part Germany"},"id":"g3NzY"},
{"type":"Feature","geometry":{"type":"LineString","coordinates":[[6.7923108,51.448775],[6.7922306,51.448573],[6.7913788,51.448362],[6.7900967,51.448624],[6.7886429,51.448522],[6.78757,51.448654],[6.7852338,51.449213],[6.7840939,51.449321],[6.7831095,51.449187],[6.7790728,51.448138],[6.7742689,51.446973],[6.7674615,51.445351],[6.7628776,51.444358],[6.7569821,51.443188],[6.7561265,51.443057],[6.7547639,51.443001],[6.7536159,51.443071],[6.7523955,51.443288],[6.7497428,51.443887],[6.7487075,51.443958],[6.7472752,51.443771],[6.7461433,51.443418],[6.7459234,51.443514],[6.7437695,51.446215],[6.7434396,51.446732],[6.7430078,51.447879],[6.742356,51.448681],[6.7405616,51.450015],[6.7395612,51.449615],[6.7378365,51.449386],[6.735908,51.449537],[6.7329924,51.449854],[6.7323487,51.450144],[6.7318015,51.450689],[6.7318257,51.451275],[6.7301412,51.453495],[6.7296799,51.454645],[6.7288323,51.455038],[6.7283334,51.455736],[6.7283442,51.457513],[6.7284434,51.459099],[6.7277058,51.460486],[6.7275556,51.460566],[6.7265015,51.462251],[6.7255842,51.463492],[6.723543,51.465939],[6.7208393,51.46859],[6.7204129,51.468883],[6.7167436,51.470595],[6.7134069,51.47166],[6.7129402,51.47174],[6.7080774,51.472054],[6.7001166,51.472639],[6.6989042,51.472846],[6.6979386,51.473223],[6.694441,51.474958],[6.6935827,51.4753],[6.6915094,51.476291],[6.6900073,51.477181],[6.6891249,51.47809],[6.6885268,51.479281],[6.6883685,51.480357],[6.6887065,51.481113],[6.6894655,51.482425],[6.690171,51.483104],[6.6924026,51.484351],[6.6938215,51.484947],[6.6971876,51.486014],[6.7000844,51.487038],[6.7037242,51.488257],[6.70738,51.489406],[6.7117654,51.490672],[6.7133882,51.491016],[6.7162984,51.491537],[6.7182188,51.492115],[6.7201446,51.493042],[6.7212175,51.493723],[6.7221939,51.494809],[6.7238005,51.497414],[6.7243021,51.497896],[6.725721,51.498544],[6.7278131,51.498896],[6.7294814,51.49748],[6.7309566,51.498329],[6.7314823,51.498811],[6.7320832,51.49996],[6.7326196,51.50065],[6.7336523,51.501338],[6.7351918,51.501979],[6.7393975,51.503096],[6.7403524,51.503131],[6.7423051,51.502959],[6.7427771,51.503571],[6.7432358,51.504632],[6.7429971,51.508214],[6.743268,51.511306],[6.7432224,51.51177],[6.7409693,51.516067],[6.7408835,51.516736],[6.7414816,51.517963],[6.7416533,51.519503],[6.7419939,51.520426],[6.7426645,51.521578],[6.7428764,51.522242],[6.7430024,51.523445],[6.7428013,51.527292],[6.7428737,51.528997],[6.7430212,51.529573],[6.7428281,51.530592],[6.7425411,51.531165],[6.7420476,51.533002],[6.7409103,51.535071],[6.739411,51.536812],[6.7387967,51.537842],[6.7391417,51.538034]]},"properties":{"name":"Restaurant Marmaris - September 2, 2025 at 14:45"},"id":"IyODI"},
{"type":"Feature","geometry":{"type":"LineString","coordinates":[[6.7391445,51.538035],[6.738907,51.538068],[6.7385489,51.538993],[6.7376641,51.5405],[6.7365614,51.541408],[6.7355119,51.541957],[6.7346185,51.542607],[6.7336134,51.54355],[6.7310385,51.545763],[6.7304398,51.546421],[6.7293378,51.547928],[6.7291316,51.548707],[6.7291593,51.549564],[6.7294633,51.55197],[6.7287343,51.552925],[6.7266025,51.55484],[6.7260813,51.555065],[6.7250662,51.55627],[6.7247031,51.557122],[6.7243726,51.557299],[6.7230691,51.557154],[6.7214909,51.557254],[6.7198745,51.557124],[6.7177771,51.557947],[6.7160956,51.558372],[6.7133662,51.559285],[6.7108847,51.559951],[6.7100208,51.560085],[6.708661,51.560121],[6.7066409,51.55948],[6.7058644,51.559347],[6.7042238,51.55883],[6.70341,51.558947],[6.7022856,51.558598],[6.7015467,51.55849],[6.7005744,51.558567],[6.7001476,51.55903],[6.6989562,51.559844],[6.6976688,51.560484],[6.6977007,51.560882],[6.6983162,51.561537],[6.6994539,51.562208],[6.7004493,51.563346],[6.7011851,51.563696],[6.7023363,51.564019],[6.7036649,51.564513],[6.7022967,51.565708],[6.7018632,51.566372],[6.7004988,51.567146],[6.6976396,51.56908],[6.6959991,51.570735],[6.694788,51.57162],[6.6942811,51.571847],[6.693832,51.573292],[6.6932742,51.574104],[6.6926244,51.575286],[6.6921466,51.575783],[6.6913482,51.576923],[6.6904396,51.577984],[6.6884414,51.579936],[6.68647,51.581739],[6.6855879,51.582474],[6.6852269,51.582441],[6.6830483,51.584278],[6.6811785,51.585428],[6.679858,51.586309],[6.6790055,51.585999],[6.6770004,51.585556],[6.6747855,51.586372],[6.6742651,51.586789],[6.6734217,51.588002],[6.6728565,51.588544],[6.6709839,51.590622],[6.6698169,51.591732],[6.6688374,51.592904],[6.6689912,51.594091],[6.6685344,51.594615],[6.6678786,51.595018],[6.667401,51.595646],[6.6660672,51.596952],[6.6642572,51.598847],[6.6626554,51.600238],[6.6620386,51.600562],[6.6610249,51.601396],[6.656123,51.604114],[6.6547344,51.605079],[6.6536816,51.606256],[6.6523866,51.608892],[6.65211,51.609604],[6.65131,51.61119],[6.6511579,51.611682],[6.6501582,51.613669],[6.6485663,51.617107],[6.6480274,51.618553],[6.647755,51.61894],[6.6466693,51.621376],[6.6452023,51.624248],[6.6444198,51.626121],[6.6437655,51.627272],[6.6417577,51.629405],[6.6411527,51.630191],[6.6394187,51.631858],[6.6379662,51.633526],[6.6375054,51.633727],[6.636581,51.634877],[6.6349524,51.634563],[6.6343105,51.634335],[6.6335495,51.634547],[6.6322214,51.634691],[6.6275889,51.634757],[6.6273207,51.635143],[6.6271999,51.636926],[6.6276055,51.637318],[6.6270595,51.638835],[6.6263597,51.639108],[6.6256593,51.640068],[6.6244546,51.640617],[6.6214624,51.640801],[6.6205385,51.639577],[6.6197303,51.639173],[6.6184736,51.638872],[6.6142001,51.639116],[6.611921,51.638427],[6.6113762,51.635657],[6.6103456,51.6352],[6.6089612,51.635071],[6.6084882,51.635154],[6.6081458,51.635526],[6.6082215,51.639013],[6.6095574,51.639671],[6.6102822,51.64073],[6.6106618,51.640907],[6.6118463,51.642906],[6.6124869,51.644922],[6.6115922,51.644911],[6.6105119,51.64516],[6.6095046,51.644954],[6.6091391,51.645319],[6.6101226,51.645679],[6.6107491,51.646351],[6.6125613,51.647677],[6.6152259,51.649504],[6.6155825,51.650063],[6.6144798,51.650417],[6.6147055,51.651066]]},"properties":{"name":"September 2, 2025 at 14:45","time":"2025-09-02T10:43:13.000Z"},"id":"Q4MTg"},
{"type":"Feature","geometry":{"type":"LineString","coordinates":[[6.6147675,51.65118],[6.6139811,51.650758],[6.6131937,51.650987],[6.6114662,51.651697],[6.6089086,51.652871],[6.6083309,51.654484],[6.6081775,51.655866],[6.6082422,51.656474],[6.6076952,51.656557],[6.6047165,51.656543],[6.6009871,51.656573],[6.5990417,51.656491],[6.5981371,51.656527],[6.5967248,51.657005],[6.5945482,51.658062],[6.5922187,51.659273],[6.592085,51.660271],[6.5916808,51.661021],[6.5901906,51.661078],[6.5898261,51.661347],[6.5895722,51.662741],[6.5868231,51.663894],[6.5865411,51.664438],[6.5853866,51.664624],[6.5838688,51.665175],[6.5814065,51.66618],[6.5783801,51.667264],[6.5770286,51.667701],[6.5740542,51.668525],[6.5693926,51.669946],[6.5672083,51.670663],[6.5650038,51.671072],[6.5625904,51.671105],[6.5594579,51.670609],[6.5579497,51.670484],[6.5564427,51.670519],[6.5557617,51.670802],[6.5531413,51.671609],[6.5520055,51.671772],[6.5505629,51.671833],[6.5492848,51.671748],[6.5469742,51.671969],[6.5420491,51.672165],[6.5410621,51.672315],[6.5388727,51.672131],[6.5381506,51.672228],[6.5367251,51.672636],[6.5355488,51.673197],[6.5333292,51.673846],[6.5280988,51.67525],[6.5276072,51.675344],[6.5249483,51.675241],[6.5241631,51.67508],[6.5211504,51.674698],[6.5202645,51.674749],[6.5192436,51.675231],[6.5186195,51.676474],[6.517404,51.678335],[6.516593,51.680004],[6.5151317,51.68267],[6.5148857,51.683209],[6.5135647,51.684619],[6.5118046,51.686599],[6.5109652,51.687194],[6.5087425,51.688186],[6.5064206,51.689081],[6.5038886,51.690168],[6.502017,51.691052],[6.4979818,51.693163],[6.493104,51.69558],[6.489948,51.69723],[6.4906609,51.698519],[6.4914099,51.69965],[6.4914808,51.700261],[6.491212,51.700817],[6.4905046,51.701382],[6.4873413,51.702546],[6.4856216,51.703132],[6.483529,51.703752],[6.4802732,51.704809],[6.4793848,51.705212],[6.4784656,51.705811],[6.4772761,51.707129],[6.47622,51.708091],[6.4748336,51.708766],[6.4719411,51.709758],[6.4697378,51.710437],[6.4676835,51.71098],[6.4655658,51.711649],[6.4641807,51.712417],[6.463832,51.712751],[6.4647583,51.712967],[6.4654745,51.71553],[6.4656346,51.716339],[6.4667759,51.719269],[6.466586,51.719456],[6.4678268,51.723744],[6.4689592,51.727325],[6.4691646,51.728275],[6.468982,51.729706],[6.4684736,51.730459],[6.4655572,51.732449],[6.464918,51.732823],[6.4629412,51.734219],[6.4614175,51.735182],[6.4602428,51.736054],[6.4583909,51.737183],[6.4565849,51.738448],[6.4548348,51.739495],[6.4530386,51.74087],[6.4518814,51.742012],[6.4506682,51.74349],[6.4498711,51.744267],[6.4486601,51.745686],[6.4465195,51.747954],[6.4452275,51.748331],[6.4451945,51.749988],[6.4443223,51.752126],[6.44347,51.75307],[6.4409102,51.755733],[6.4370235,51.757997],[6.4354186,51.759038],[6.4331135,51.760448],[6.4320787,51.760646],[6.4298052,51.761453],[6.4257592,51.761406],[6.4238865,51.761463],[6.4236463,51.761547],[6.4213973,51.761705],[6.4200607,51.761952],[6.4190547,51.762012],[6.4151774,51.761561],[6.4141695,51.761531],[6.4123356,51.761673],[6.4106266,51.761662],[6.4089726,51.76145],[6.40763,51.761155],[6.4056391,51.760842],[6.4021177,51.760003],[6.4006684,51.759024],[6.4010038,51.758641],[6.3986823,51.757327],[6.3977329,51.757089],[6.3957297,51.75694],[6.3949769,51.757003],[6.3928078,51.757365],[6.3915898,51.757466],[6.3909223,51.757664],[6.3909517,51.75836],[6.3905295,51.758441]]},"properties":{"name":"September 2, 2025 at 17:48","time":"2025-09-02T14:09:11.000Z"},"id":"E4NzM"},
{"type":"Feature","geometry":{"type":"LineString","coordinates":[[6.3673432,51.748283],[6.3659681,51.748116],[6.3621125,51.747982],[6.3598803,51.747762],[6.3572946,51.747359],[6.3549992,51.747223],[6.3532515,51.747274],[6.3517456,51.74742],[6.3465676,51.748774],[6.3449173,51.749084],[6.3439256,51.749162],[6.3396044,51.748906],[6.3387078,51.748922],[6.3354079,51.749681],[6.3345838,51.749774],[6.3344514,51.750066],[6.3333985,51.750883],[6.3331993,51.751367],[6.3321805,51.751559],[6.3320645,51.752003],[6.3323954,51.752746],[6.3322142,51.753087],[6.3313275,51.753891],[6.3302609,51.754425],[6.3305828,51.755527],[6.3297671,51.756714],[6.327871,51.758296],[6.3254768,51.760545],[6.3246007,51.761543],[6.3232892,51.762741],[6.3227286,51.763147],[6.3210697,51.764784],[6.3199635,51.765721],[6.3199682,51.76648],[6.3218551,51.768158],[6.3231159,51.768992],[6.3238096,51.769585],[6.3242721,51.770266],[6.3243376,51.771006],[6.3240795,51.771952],[6.3236281,51.772731],[6.3229001,51.773399],[6.3218469,51.773788],[6.3179378,51.774459],[6.3171416,51.774695],[6.3163753,51.775176],[6.3158107,51.776121],[6.3155052,51.778582],[6.315026,51.781544],[6.3147456,51.782039],[6.3135278,51.783699],[6.3138174,51.784177],[6.3145386,51.784911],[6.3151432,51.786207],[6.3158088,51.786139],[6.3167602,51.786811],[6.3156648,51.788134],[6.3139384,51.788728],[6.3128362,51.78924],[6.3116598,51.789565],[6.3102208,51.789415],[6.3098346,51.78949],[6.3084393,51.790533],[6.3036972,51.794268],[6.3019304,51.79591],[6.3008074,51.796777],[6.2976,51.799441],[6.2960727,51.800415],[6.2950524,51.800936],[6.2917802,51.802251],[6.2889901,51.803454],[6.2861431,51.804571],[6.2832216,51.805766],[6.2801219,51.807086],[6.2739795,51.809516],[6.2703808,51.811031],[6.2635424,51.813813],[6.2615541,51.81447],[6.2589932,51.814965],[6.2564284,51.81516],[6.2549834,51.81539],[6.2527072,51.816125],[6.2507247,51.816649],[6.2464471,51.81724],[6.2454912,51.81748],[6.2437316,51.818109],[6.2403885,51.818878],[6.2375577,51.819435],[6.2332754,51.82034],[6.2320282,51.820637],[6.2286943,51.821319],[6.2281575,51.821357],[6.226506,51.821219],[6.2256163,51.821316],[6.2246778,51.821627],[6.2234515,51.822339],[6.2223792,51.822685],[6.2199687,51.823165],[6.2173734,51.823759],[6.2168079,51.823952],[6.2148868,51.824359],[6.2132159,51.824637],[6.2114274,51.82474],[6.2080091,51.824595],[6.205057,51.824653],[6.2027225,51.824793],[6.2005668,51.825043],[6.196607,51.825378],[6.1948092,51.825482],[6.1936775,51.825448],[6.1914249,51.825255],[6.188886,51.824938],[6.1837867,51.824353],[6.1819271,51.823847],[6.1810923,51.823418],[6.1787123,51.821688],[6.1776812,51.820877],[6.1767495,51.821173],[6.1745195,51.822235],[6.1717007,51.823317],[6.1703366,51.823673],[6.1679928,51.824438],[6.1666365,51.824653],[6.162321,51.825207],[6.1608111,51.825312],[6.1557528,51.825438],[6.1510622,51.825581],[6.1489114,51.825972],[6.1408095,51.827331],[6.1400336,51.82735],[6.1386619,51.827183],[6.1376767,51.827751],[6.1359467,51.828222],[6.1346952,51.828251],[6.1316756,51.827939],[6.1303205,51.82811],[6.1286429,51.82866],[6.1255547,51.829386],[6.1219954,51.829955],[6.11918,51.830222],[6.1152509,51.830301],[6.1108572,51.830052],[6.1099104,51.830112],[6.1072144,51.830677],[6.1065493,51.830983],[6.104776,51.83131],[6.1031023,51.830953],[6.1022973,51.831011],[6.1015434,51.831509],[6.1006874,51.833022],[6.100062,51.833863],[6.0990092,51.834974],[6.0966639,51.837041],[6.0961714,51.83769],[6.0955507,51.8388],[6.0938828,51.840418],[6.0927759,51.841684],[6.0915109,51.842939],[6.0902215,51.843628],[6.0886474,51.844755],[6.0874016,51.845745],[6.0858711,51.846618],[6.0842464,51.847723],[6.0835342,51.848011],[6.0829541,51.848724],[6.0816051,51.849857],[6.0810246,51.850139],[6.0796833,51.851461],[6.0774265,51.852399],[6.0762511,51.853045],[6.0752485,51.853749],[6.0744928,51.854655],[6.0740114,51.855649],[6.073063,51.856507],[6.0725932,51.857249],[6.0719296,51.857767],[6.0704832,51.858598],[6.0703136,51.858909],[6.069281,51.859386],[6.0678564,51.860183],[6.0661173,51.860499],[6.0648979,51.860802],[6.0644621,51.861068],[6.0629813,51.86157],[6.061945,51.862022],[6.0610998,51.86226],[6.0597147,51.863115],[6.0591658,51.863332],[6.0578758,51.863365],[6.0569214,51.863736],[6.0561726,51.864571],[6.0549542,51.864944],[6.0543073,51.865657],[6.0550142,51.866403],[6.055512,51.866599],[6.0556064,51.867087],[6.057346,51.868058],[6.0581716,51.868347],[6.0591702,51.868473],[6.0602737,51.868354],[6.0614301,51.867907],[6.0621522,51.867943],[6.0629299,51.868641],[6.0621414,51.869104],[6.0601101,51.870034],[6.0575596,51.870827],[6.0567966,51.87128],[6.0568096,51.872391],[6.0582248,51.872904],[6.0582668,51.873101],[6.0568624,51.873441],[6.0543613,51.873235],[6.0540717,51.873686],[6.0514288,51.874062],[6.0508249,51.874283],[6.0508796,51.875258],[6.0502534,51.87624],[6.048628,51.880049],[6.0473017,51.883259],[6.0464207,51.885154],[6.0462674,51.886067],[6.0457562,51.886799],[6.0433403,51.886752],[6.04126,51.887188],[6.0395727,51.88709],[6.0385929,51.887168],[6.0365648,51.887922],[6.0359,51.887968],[6.0347463,51.88782],[6.0339107,51.887898],[6.033178,51.888132],[6.0324559,51.888719],[6.031521,51.890204],[6.0306889,51.892086],[6.0299238,51.893318],[6.0285281,51.89538],[6.0277973,51.896362],[6.025863,51.898168],[6.0214798,51.901918],[6.0200376,51.902984],[6.0183908,51.904108],[6.0168181,51.904854],[6.0153504,51.90546],[6.0128574,51.906226],[6.0036953,51.909174],[6.0011661,51.910295],[5.9993945,51.911539],[5.9983305,51.912497],[5.9976825,51.913329],[5.9972828,51.914103],[5.9967915,51.915798],[5.9966997,51.917635],[5.9933146,51.919647],[5.9925415,51.920565],[5.9924119,51.921845],[5.9919104,51.923395],[5.9910651,51.924205],[5.9900591,51.924858],[5.9881872,51.925849],[5.9863028,51.928003],[5.985579,51.92849],[5.984115,51.92879],[5.9804161,51.928882],[5.9799235,51.928966],[5.9780949,51.929815],[5.9761218,51.930501],[5.9720269,51.931537],[5.9709775,51.931887],[5.9703729,51.932284],[5.9701853,51.932705],[5.9703174,51.933421],[5.97013,51.933927],[5.9691136,51.934764],[5.9686797,51.935654],[5.9690357,51.936837],[5.9692891,51.93832],[5.9693076,51.938974],[5.9691407,51.941219],[5.9688289,51.941698],[5.9676009,51.942229],[5.9671917,51.942558],[5.9669894,51.943541],[5.9673167,51.944245],[5.9687961,51.944604],[5.9698986,51.944636],[5.970735,51.944474],[5.971074,51.944243],[5.970916,51.943688],[5.9698811,51.943259],[5.9695571,51.942919],[5.9703599,51.942493],[5.97101,51.942323],[5.9714022,51.941887],[5.9719689,51.942142],[5.9717546,51.942572],[5.9722099,51.94272],[5.9732313,51.94213]]},"properties":{"name":"September 3, 2025 at 13:36","time":"2025-09-03T08:04:41.000Z"},"id":"A3OTY"},
{"type":"Feature","geometry":{"type":"LineString","coordinates":[[5.9710581,51.944199],[5.9749009,51.94459],[5.9751316,51.945165],[5.9749948,51.945785],[5.9764486,51.946291],[5.9778513,51.947288],[5.9783422,51.948031],[5.9783341,51.948672],[5.978597,51.949267],[5.9785514,51.950109],[5.9787928,51.95134],[5.9787982,51.95255],[5.979061,51.953165],[5.9797423,51.953879],[5.9808849,51.954818],[5.9822931,51.957061],[5.9825908,51.957385],[5.982918,51.958413],[5.9828805,51.958795],[5.9833821,51.960491],[5.9837629,51.962064],[5.9846615,51.964843],[5.9851952,51.965735],[5.9858765,51.966457],[5.9871801,51.96734],[5.9888833,51.96806],[5.9898569,51.968278],[5.989645,51.968594],[5.9911176,51.968896],[5.9930917,51.969529],[5.9966965,51.971479],[5.997866,51.972471],[5.9992205,51.973825],[5.999875,51.973787],[5.9999715,51.974172],[6.0015728,51.975734],[6.0041477,51.978138],[6.0052796,51.979045],[6.0078975,51.980864],[6.0107969,51.982679],[6.0130044,51.983753],[6.0144313,51.984255],[6.0168024,51.984832],[6.0187684,51.985093],[6.0207479,51.985177],[6.0260855,51.985179],[6.0258709,51.985639],[6.026233,51.986773],[6.030031,51.985507],[6.031914,51.985425],[6.0356583,51.985496],[6.0412319,51.985502],[6.0445564,51.985591]]},"properties":{"name":"September 3, 2025 at 13:36 - Hanse-Radweg"},"id":"c3Mzk"},
{"type":"Feature","geometry":{"type":"LineString","coordinates":[[6.0446213,51.985599],[6.0448813,51.985824],[6.0462997,51.985856],[6.0475935,51.986293],[6.0491545,51.987597],[6.0493149,51.98789],[6.0504908,51.988738],[6.0514282,51.989079],[6.0549413,51.989877],[6.059464,51.99138],[6.060953,51.992165],[6.0629365,51.993484],[6.0650306,51.996108],[6.0661205,51.996276],[6.065959,51.996788],[6.0668243,51.998064],[6.0676106,51.998627],[6.0686302,51.999015],[6.0695849,51.999166],[6.0751307,51.999369],[6.0763022,51.999093],[6.0774245,51.99836],[6.0778176,51.997836],[6.0785662,51.997596],[6.0814088,51.99583],[6.0831785,51.994278],[6.0848722,51.993161],[6.0867167,51.992422],[6.087976,51.992055],[6.0908147,51.991513],[6.0932497,51.991209],[6.0958125,51.991028],[6.0969908,51.991121],[6.0975925,51.990749],[6.0984641,51.991189],[6.1001851,51.99151],[6.101793,51.992009],[6.1065975,51.99393],[6.1124687,51.996412],[6.1133667,51.996631],[6.1148172,51.996805],[6.1142698,51.997504],[6.1142311,51.997939],[6.114598,51.999322],[6.1149409,51.999817],[6.1156209,52.000362],[6.1167224,52.000862],[6.1207497,52.001955],[6.1238387,52.003037],[6.126042,52.003098]]},"properties":{"name":"September 3, 2025 at 16:36","time":"2025-09-03T13:18:27.000Z"},"id":"czODM"},
{"type":"Feature","geometry":{"type":"LineString","coordinates":[[6.1315059,51.994683],[6.1305138,51.994169],[6.1292933,51.993789],[6.125986,51.993327],[6.1247919,51.993091],[6.1234126,51.993003],[6.1212542,51.992389],[6.1207766,51.992106],[6.1196246,51.991737],[6.1156141,51.991192],[6.1141096,51.991163],[6.1127683,51.991454],[6.1140293,51.994959],[6.1141704,51.995795],[6.1147299,51.997032],[6.1143192,51.997382],[6.114328,51.998096],[6.114555,51.99907],[6.115002,51.999821],[6.1157435,52.000412],[6.1152252,52.000935],[6.1156905,52.002376],[6.1160806,52.003054],[6.116741,52.003765],[6.1176421,52.004407],[6.1192625,52.00513],[6.1204379,52.005322],[6.123791,52.005559],[6.1254168,52.005911],[6.1282111,52.00701],[6.1293359,52.00704],[6.130802,52.0067],[6.1314398,52.008302],[6.1340027,52.010953],[6.1327873,52.011453],[6.1309002,52.01243],[6.1302682,52.01241],[6.129051,52.013402],[6.1284184,52.014331],[6.1285111,52.015188],[6.1302509,52.014743],[6.131073,52.015163],[6.1312777,52.015807],[6.1320787,52.016893],[6.1323661,52.017616],[6.1323703,52.018127],[6.1326642,52.018645],[6.1315311,52.01871],[6.1296532,52.019416],[6.1280783,52.019931],[6.1265107,52.020551],[6.1231325,52.022062],[6.1221621,52.022538],[6.1206309,52.023154],[6.1191697,52.023831],[6.1161422,52.025144],[6.114862,52.025746],[6.1112506,52.027138],[6.108077,52.028622],[6.1074139,52.029154],[6.1080995,52.03018],[6.1084772,52.031402],[6.1085244,52.032064],[6.1081772,52.032921],[6.1067962,52.03407],[6.1065833,52.034367],[6.1063165,52.036312],[6.1060822,52.038816],[6.1048263,52.040218],[6.1040769,52.040525],[6.1043045,52.040825],[6.1054354,52.041407],[6.1059097,52.041834],[6.1059303,52.042232],[6.1065904,52.042984],[6.1078279,52.044781],[6.1094767,52.046211],[6.1124384,52.048533],[6.1135309,52.049835],[6.1143371,52.050534],[6.1166306,52.053347],[6.117814,52.054913],[6.1196528,52.056632],[6.1211576,52.057937],[6.122387,52.058849],[6.1254119,52.061229],[6.1294978,52.064295],[6.1296276,52.06447],[6.1347076,52.068306],[6.1378653,52.07075],[6.1393316,52.071979],[6.1432673,52.074988],[6.1448919,52.076302],[6.1467625,52.07765],[6.1480639,52.078733],[6.1497245,52.079928],[6.1513892,52.080872],[6.159368,52.0848],[6.1601662,52.085244],[6.1608231,52.08533],[6.1624244,52.087113],[6.1629976,52.088033],[6.163272,52.08875],[6.1636441,52.088812],[6.165078,52.089608],[6.1665025,52.090136],[6.1695694,52.090935],[6.1711123,52.091541],[6.1730393,52.092805],[6.1744686,52.094152],[6.1762536,52.096032],[6.1806837,52.099011],[6.1818218,52.099635],[6.1828986,52.100103],[6.1841302,52.100947],[6.1843829,52.101413],[6.1844957,52.102596],[6.1839946,52.103684],[6.1827053,52.104683],[6.1822239,52.105705],[6.1824614,52.106992],[6.1829509,52.108506],[6.1829989,52.109684],[6.1827208,52.110955],[6.1829799,52.112178],[6.1830597,52.114246],[6.1833712,52.11544],[6.1827981,52.116849],[6.182561,52.117125],[6.1814008,52.117047],[6.180173,52.116836],[6.1784654,52.116697],[6.1783419,52.116861],[6.1821589,52.117576],[6.1832527,52.117707],[6.1934831,52.119172],[6.1940072,52.119181],[6.1982441,52.119711],[6.1993366,52.119637],[6.2001373,52.119725],[6.1992958,52.121402],[6.1978673,52.122247],[6.1978182,52.123121],[6.199165,52.123397],[6.1990229,52.12382],[6.1995484,52.12502],[6.1981827,52.125276]]},"properties":{"name":"September 4, 2025 at 11:11","time":"2025-09-04T07:38:06.000Z"},"id":"IwMjE"},
{"type":"Feature","geometry":{"type":"LineString","coordinates":[[6.1273512,52.270292],[6.1262043,52.271545],[6.1256576,52.273235],[6.1263283,52.274456],[6.1269425,52.275302],[6.1282913,52.275947],[6.1313696,52.277636],[6.1315786,52.278009],[6.1300243,52.279545],[6.128964,52.280874],[6.1280468,52.281853],[6.1293922,52.28282],[6.1302725,52.283154],[6.1326174,52.283818],[6.1335427,52.283975],[6.1354948,52.2848],[6.1374599,52.285517],[6.1413003,52.286789],[6.1416155,52.287522],[6.1438846,52.288624],[6.1444871,52.28879],[6.1454637,52.289569],[6.1448891,52.291135],[6.1440791,52.291929],[6.143621,52.293062],[6.1433786,52.293987],[6.1435426,52.294631],[6.1439441,52.294945],[6.1446984,52.294718],[6.1457733,52.293211],[6.1480784,52.293693],[6.1469543,52.296023],[6.1471986,52.297606],[6.1474956,52.298522],[6.147405,52.299062],[6.1475979,52.299716],[6.1477344,52.30218],[6.147596,52.302767],[6.147525,52.305262],[6.1473728,52.305878],[6.1473707,52.30741],[6.1472341,52.310496],[6.14708,52.311837],[6.146849,52.315034],[6.1463732,52.315467],[6.1458158,52.316857],[6.1454394,52.318396],[6.1448952,52.320096],[6.1441822,52.321891],[6.143376,52.324206],[6.1433126,52.325013],[6.1419685,52.325355],[6.1402429,52.325685],[6.1388227,52.32617],[6.1378923,52.32631],[6.136109,52.326032],[6.133979,52.325557],[6.1333336,52.325479],[6.1318961,52.32558],[6.1299424,52.326121],[6.1296665,52.325999],[6.1290738,52.324898],[6.1283526,52.32398],[6.1257716,52.324504],[6.1232828,52.325284],[6.1223192,52.325472],[6.1219871,52.325808],[6.1217872,52.326458],[6.1219164,52.327255],[6.1218209,52.328241],[6.1225011,52.328377]]},"properties":{"name":"September 4, 2025 at 15:03","time":"2025-09-04T12:10:19.000Z"},"id":"c3NDQ"},
{"type":"Feature","geometry":{"type":"LineString","coordinates":[[6.121517,52.328811],[6.1207007,52.330377],[6.1206999,52.331125],[6.1209028,52.331955],[6.1217275,52.332955],[6.1206688,52.333624],[6.1185489,52.334533],[6.1182308,52.335401],[6.1136007,52.337509],[6.1129902,52.337645],[6.1130882,52.338095],[6.1124875,52.34015],[6.1122389,52.34156],[6.1107389,52.343262],[6.1107659,52.343891],[6.1103244,52.343953],[6.1090031,52.345237],[6.1092666,52.346164],[6.1090525,52.347453],[6.1090796,52.34924],[6.1089267,52.350596],[6.1083658,52.351756],[6.107885,52.352364],[6.1098275,52.352991],[6.1105088,52.353864],[6.1120982,52.354821],[6.1130185,52.354864],[6.1138063,52.355305],[6.1147813,52.35607],[6.1164212,52.356896],[6.1175361,52.356891],[6.11921,52.356427],[6.1199264,52.356549],[6.1208734,52.357359],[6.122482,52.358086],[6.1230365,52.358209],[6.1266787,52.358492],[6.1259692,52.359265],[6.1257911,52.359774],[6.1260683,52.360626],[6.1259081,52.362244],[6.1259753,52.363206],[6.128375,52.365759],[6.1291538,52.367438],[6.1295722,52.368079],[6.131009,52.369467],[6.1311883,52.369479],[6.1310862,52.369467]]},"properties":{"name":"September 4, 2025 at 16:11","time":"2025-09-04T13:23:49.000Z"},"id":"YzMTM"},
{"type":"Feature","geometry":{"type":"LineString","coordinates":[[6.1311883,52.369479],[6.1310418,52.369531],[6.1327892,52.371338],[6.1336501,52.371983],[6.1351007,52.371375],[6.1348312,52.370841]]},"properties":{"name":"September 4, 2025 at 16:11"},"id":"c0NzA"},
{"type":"Feature","geometry":{"type":"LineString","coordinates":[[6.1335367,52.37185],[6.1327702,52.371518],[6.1319715,52.371772],[6.1317401,52.373776],[6.1312118,52.374542],[6.1301823,52.375671],[6.1300166,52.376456],[6.1317515,52.37893],[6.1332058,52.380602],[6.1353671,52.382559],[6.1356123,52.383666],[6.1367659,52.384276],[6.1363622,52.384454],[6.1357762,52.385179],[6.1359081,52.385765],[6.1358224,52.386973],[6.135574,52.387749],[6.1355331,52.388572],[6.1353235,52.389508],[6.1341678,52.389626],[6.1330717,52.390094],[6.131411,52.390668],[6.1300686,52.390552],[6.129181,52.389907],[6.1290804,52.389331],[6.1291216,52.38762],[6.1290163,52.387169],[6.1292505,52.386538],[6.1290217,52.385947],[6.1282622,52.386136],[6.1285562,52.387172],[6.1286477,52.39056],[6.1290255,52.390512],[6.1299555,52.391607],[6.1341627,52.39541],[6.1359166,52.396776],[6.1368003,52.397659],[6.137404,52.398535],[6.1380192,52.40042],[6.1391249,52.404824],[6.1401046,52.407584],[6.1412499,52.410227],[6.1417644,52.411847],[6.1416297,52.41222],[6.1418225,52.412766],[6.1413521,52.413423],[6.1403194,52.414155],[6.1395264,52.414423],[6.1373074,52.414587],[6.1370434,52.414733],[6.1358983,52.417457],[6.1358791,52.41784],[6.1362361,52.418951],[6.1363362,52.41986],[6.1369483,52.420676],[6.1368886,52.42126],[6.1359869,52.422081],[6.1359782,52.422724],[6.1355062,52.423494],[6.1345149,52.423926],[6.1335211,52.425075],[6.133353,52.425668],[6.1322215,52.42747],[6.1309544,52.429017],[6.1304485,52.430532],[6.1303691,52.431456],[6.1293897,52.43281],[6.1279782,52.434037],[6.1296299,52.434478],[6.1289825,52.43508],[6.1274398,52.435854],[6.1271519,52.436116],[6.1260381,52.438856],[6.1254554,52.439616],[6.1252848,52.441563],[6.1260737,52.44447],[6.1260274,52.444983],[6.1256561,52.445147],[6.1235034,52.444744],[6.1226923,52.445309],[6.1218238,52.445265],[6.1195365,52.44551],[6.1169638,52.445062],[6.1163686,52.445099],[6.1153127,52.445838],[6.1138478,52.44669],[6.1125049,52.447707],[6.1113403,52.448954],[6.1110798,52.449378],[6.1110014,52.450029],[6.1113712,52.451058],[6.1113974,52.452774],[6.1117,52.454439],[6.1126976,52.455776],[6.1136533,52.456283],[6.1148089,52.458011],[6.1144699,52.459762],[6.113351,52.46137],[6.1132345,52.462197],[6.1126812,52.462739],[6.1123321,52.463458],[6.1127679,52.464116],[6.114446,52.465196],[6.1147411,52.465762],[6.1145936,52.46634],[6.1147977,52.466678],[6.1147266,52.467683],[6.1140592,52.468473],[6.1144981,52.469074],[6.1140574,52.469546],[6.1131587,52.470961],[6.1123434,52.472502],[6.1110358,52.474071],[6.1112387,52.474629],[6.113114,52.476529],[6.1140517,52.47726],[6.1161785,52.478186],[6.1160565,52.478601],[6.1146248,52.479527],[6.1141006,52.479751],[6.1118584,52.481158],[6.1114363,52.481539],[6.1095719,52.482611],[6.1098003,52.482969]]},"properties":{"name":"September 5, 2025 at 11:22","time":"2025-09-05T07:50:52.000Z"},"id":"k4Njg"},
{"type":"Feature","geometry":{"type":"LineString","coordinates":[[6.1097678,52.48306],[6.1099205,52.483355],[6.1087613,52.483483],[6.1079165,52.483433],[6.1075338,52.483195],[6.1064049,52.482907],[6.1046699,52.482218],[6.1037759,52.482043],[6.1031962,52.482234],[6.1027318,52.481917],[6.0995163,52.481324],[6.0985696,52.481296],[6.0947384,52.480573],[6.0940695,52.480677],[6.0925856,52.480551],[6.0911099,52.480296],[6.0897065,52.480773],[6.0899346,52.480115],[6.0894155,52.479389],[6.0871236,52.479628],[6.0853009,52.480705],[6.0845021,52.481343],[6.0837713,52.482665],[6.0832699,52.483388],[6.0825859,52.484099],[6.0808744,52.485304],[6.0800787,52.485673],[6.0791632,52.486317],[6.0787942,52.487218],[6.0781829,52.488223],[6.0779347,52.488346],[6.0757852,52.488691],[6.0738435,52.489098],[6.0731334,52.489322],[6.071902,52.48998],[6.0709743,52.490759],[6.0706276,52.491282],[6.0708592,52.491847],[6.0704834,52.492441],[6.0700623,52.49353],[6.0687644,52.494011],[6.0683302,52.494359],[6.0676714,52.49454],[6.0664266,52.49428],[6.0660889,52.494483],[6.0662987,52.495754],[6.0663023,52.496616],[6.0657694,52.497149],[6.0658217,52.497621],[6.065424,52.497797],[6.063676,52.498016],[6.0632209,52.497963],[6.0624887,52.498203],[6.0591046,52.498951],[6.0591778,52.499386],[6.0587285,52.500602],[6.0579706,52.500682],[6.05681,52.501542],[6.0561,52.50219],[6.0551806,52.502682],[6.0541208,52.503458],[6.0548148,52.504979],[6.0546025,52.506683],[6.0536297,52.507535],[6.0534698,52.508136],[6.0544725,52.509031],[6.0550511,52.509732],[6.0541207,52.510148],[6.0522853,52.509044],[6.0506941,52.507632],[6.0492142,52.506903],[6.0478761,52.507441],[6.0457919,52.507751],[6.0447676,52.507998],[6.0441925,52.508328],[6.0427681,52.509553],[6.0412152,52.510378],[6.0401565,52.510818],[6.0392368,52.511399],[6.0387768,52.51205],[6.0379537,52.512713],[6.0364961,52.513436],[6.0357847,52.513965],[6.0350197,52.514801],[6.0332074,52.515871],[6.0315392,52.51655],[6.0313036,52.516953],[6.0300358,52.517576],[6.0296845,52.517877],[6.0288243,52.519399],[6.0279981,52.520337],[6.0271099,52.520901],[6.0262507,52.521244],[6.0256011,52.521808],[6.0248664,52.523468],[6.024184,52.524051],[6.0246159,52.525107],[6.0246908,52.525702],[6.0244849,52.526165],[6.0231128,52.527436],[6.0230261,52.52767],[6.0230977,52.529235],[6.0228842,52.530447],[6.0221818,52.531195],[6.0192649,52.531685],[6.018471,52.532181],[6.0175956,52.532505],[6.0146151,52.533106],[6.0136386,52.533248],[6.0089237,52.533567],[6.0041598,52.53349],[6.001794,52.533257],[6.0007324,52.533052],[5.994604,52.530181],[5.9920348,52.529169],[5.9879451,52.527665],[5.9839373,52.526106],[5.9834247,52.526062],[5.9814858,52.52624],[5.980448,52.525958],[5.9783068,52.525512],[5.9761616,52.525631],[5.9745845,52.526071],[5.9727202,52.52629],[5.9699926,52.526383],[5.967216,52.526861],[5.9655289,52.527025],[5.9639189,52.527793],[5.9631972,52.528563],[5.9631375,52.529327],[5.9627613,52.529899],[5.9626425,52.531832],[5.9629301,52.533085],[5.962746,52.534081],[5.9622534,52.535174],[5.9626407,52.53576],[5.9640003,52.53653],[5.964199,52.537167],[5.9639611,52.537771],[5.9638689,52.538895],[5.9635638,52.539668],[5.9649119,52.541105],[5.9654869,52.54135],[5.9636915,52.542348],[5.9613913,52.543014],[5.9585126,52.544195],[5.9500472,52.547483],[5.9488028,52.548009],[5.9469708,52.548301],[5.9454428,52.548385],[5.9438068,52.54827],[5.9416646,52.547632],[5.93891,52.546094],[5.9370317,52.544858],[5.9360214,52.544408],[5.933641,52.542799],[5.9331172,52.54253],[5.9295977,52.540329],[5.9262678,52.538151],[5.9254959,52.537813],[5.924322,52.537483],[5.9235463,52.537053],[5.9229762,52.536356],[5.9218353,52.536216],[5.9208272,52.535414],[5.92075,52.534886],[5.9200746,52.53329],[5.9194867,52.532658],[5.9186631,52.532391],[5.9169442,52.53125],[5.9162815,52.530661],[5.9158782,52.530571],[5.914356,52.529753],[5.9134245,52.528895],[5.9138077,52.528206],[5.9134942,52.527876],[5.9123278,52.527293],[5.911382,52.527108],[5.90793,52.527285],[5.9075944,52.526932],[5.9054492,52.523643],[5.9044059,52.52255],[5.9031363,52.521781],[5.8986789,52.519425],[5.8950613,52.517997],[5.8918225,52.516194],[5.8905545,52.515443],[5.8891242,52.514066],[5.8887704,52.513856],[5.8808095,52.511303],[5.8790447,52.510687],[5.8783935,52.511423],[5.8773758,52.512899],[5.8776852,52.513608],[5.877378,52.513954],[5.8766516,52.514083],[5.8754228,52.513734],[5.8746382,52.51375],[5.8735295,52.51346],[5.8724373,52.512963],[5.8692981,52.511874],[5.8689519,52.511369],[5.8675993,52.510738],[5.8656335,52.509663],[5.8644138,52.508282],[5.8644177,52.506967],[5.8635972,52.505259],[5.8625431,52.502777],[5.8614274,52.500725],[5.8601093,52.499652],[5.8571093,52.496965],[5.8555313,52.495669],[5.8546695,52.495405],[5.8535469,52.495273]]},"properties":{"name":"September 5, 2025 at 13:57","time":"2025-09-05T09:57:09.000Z"},"id":"g5ODg"},
{"type":"Feature","geometry":{"type":"LineString","coordinates":[[5.8444115,52.470167],[5.8421183,52.466769],[5.8396933,52.463505],[5.8376909,52.460668],[5.8358599,52.458266],[5.8359707,52.455549],[5.8357996,52.45363],[5.8352211,52.451734],[5.8353632,52.449798],[5.8347526,52.449147],[5.8356803,52.448586],[5.8356441,52.448331],[5.834721,52.447485],[5.8334019,52.44784],[5.8328901,52.447755],[5.8322753,52.44703],[5.8317432,52.446821],[5.8299606,52.445674],[5.8286509,52.445023],[5.8261422,52.443638],[5.8270704,52.441834],[5.827688,52.441042],[5.8262492,52.440771],[5.8237358,52.440704],[5.8230517,52.440583],[5.8218156,52.440642],[5.820678,52.439932],[5.8188733,52.439146],[5.8177894,52.438176],[5.816332,52.437177],[5.8151177,52.436048],[5.8139037,52.435365],[5.8124667,52.434416],[5.8112125,52.433723],[5.8101457,52.432867],[5.808238,52.431914],[5.8060317,52.430402],[5.8048225,52.429749],[5.8023447,52.427985],[5.8004928,52.427109],[5.7985135,52.426732],[5.7970295,52.425935],[5.7960518,52.425278],[5.7953822,52.424655],[5.7951104,52.424171],[5.7924687,52.422141],[5.79009,52.42097],[5.7894306,52.42049],[5.7863187,52.419187],[5.7853554,52.418498],[5.7842701,52.417155],[5.7836276,52.417046],[5.7820635,52.415987],[5.7817558,52.415359],[5.7811006,52.414794],[5.7787579,52.413217],[5.7782755,52.412173],[5.7778913,52.411876],[5.7781639,52.410968],[5.7777158,52.410281],[5.7781134,52.40898],[5.7779054,52.408716],[5.7767918,52.408008],[5.7766145,52.407706],[5.7767332,52.406327],[5.7761107,52.405835],[5.7738611,52.404681],[5.7747681,52.403586],[5.7757157,52.401856],[5.7751729,52.400958],[5.7751947,52.400635],[5.7779715,52.399588],[5.7794521,52.398669],[5.7799932,52.397975],[5.7802639,52.396948],[5.7807795,52.395831],[5.7810637,52.394051],[5.7819571,52.392609],[5.7820412,52.392248],[5.7792616,52.391671],[5.7773469,52.391118],[5.7765812,52.390992],[5.7746686,52.390318],[5.7730186,52.389889],[5.7709425,52.389663],[5.7686055,52.389776],[5.7655576,52.390186],[5.764305,52.390528],[5.7635468,52.390481],[5.762449,52.389961],[5.7605803,52.389649],[5.7573446,52.389524],[5.7561529,52.389575],[5.7548899,52.389424],[5.7528993,52.389352],[5.7517838,52.389559],[5.7508705,52.389579],[5.7499709,52.389352],[5.7475412,52.38926],[5.7463985,52.389334],[5.7451506,52.389172],[5.7439089,52.389287],[5.7437638,52.389445]]},"properties":{"name":"September 5, 2025 at 16:36","time":"2025-09-05T13:09:11.000Z"},"id":"Q1Mzg"},
{"type":"Feature","geometry":{"type":"LineString","coordinates":[[5.7381254,52.384457],[5.7389038,52.383473],[5.7382409,52.383238],[5.7361107,52.383336],[5.7335882,52.383142],[5.7333425,52.383242],[5.7313767,52.385195],[5.7305414,52.386325],[5.7300295,52.387643],[5.7280433,52.387063],[5.7275817,52.386999],[5.7254501,52.386253],[5.7187686,52.385175],[5.7168067,52.384466],[5.7129438,52.382572],[5.711359,52.381918],[5.7097502,52.383242],[5.708197,52.382351],[5.7065867,52.381805],[5.7050303,52.381139],[5.7038047,52.380828],[5.7028452,52.379727],[5.7020041,52.379334],[5.7018579,52.378405],[5.7015228,52.377963],[5.701452,52.377296],[5.701752,52.376426],[5.7004487,52.375922],[5.6989207,52.375585],[5.6973989,52.374674],[5.6979726,52.37422],[5.6979987,52.373789],[5.6970658,52.373257],[5.6954591,52.372671],[5.6949689,52.372394],[5.6939433,52.371274],[5.6935196,52.370563],[5.6914709,52.369505],[5.6908257,52.368974],[5.6891776,52.366759],[5.6869702,52.364841],[5.6856112,52.363574],[5.6844466,52.362933],[5.6833045,52.361111],[5.6817576,52.360021],[5.680122,52.358993],[5.677658,52.35733],[5.675816,52.356018],[5.6747219,52.355815],[5.6687705,52.355758],[5.6673498,52.355703],[5.6652396,52.355443],[5.6636852,52.355126],[5.6607515,52.354711],[5.6570038,52.354251],[5.6565507,52.354134],[5.6538961,52.353813],[5.6524051,52.353484],[5.6471436,52.351619],[5.6464428,52.35134],[5.6441296,52.351044],[5.6404662,52.350477],[5.6395127,52.350284],[5.6389071,52.349975],[5.6382704,52.350086],[5.6333019,52.349211],[5.6326611,52.348919],[5.6317005,52.348766],[5.6305642,52.348208],[5.6299211,52.347681],[5.6289389,52.347133],[5.626597,52.345544],[5.62602,52.345647],[5.624769,52.346435],[5.6237239,52.346984],[5.6233921,52.34758],[5.6235673,52.348455],[5.6208667,52.348618],[5.6190794,52.34776],[5.6179576,52.347324],[5.6147021,52.346438],[5.6133263,52.347331],[5.6129368,52.347238],[5.6126525,52.346595],[5.6115222,52.345634],[5.6112322,52.34527],[5.6093609,52.343728],[5.607829,52.342601],[5.6054142,52.340911],[5.6049798,52.340371],[5.6041108,52.339647],[5.6023136,52.338402],[5.6012868,52.337906],[5.5999471,52.337432],[5.598724,52.336661],[5.5976174,52.335697],[5.5956876,52.334778],[5.5947287,52.333863],[5.5949744,52.333492],[5.5949767,52.332921],[5.5925932,52.332399],[5.5904951,52.332098],[5.5892697,52.331755],[5.5882467,52.331321],[5.5874646,52.330841],[5.5841771,52.329636],[5.5832968,52.329394],[5.580372,52.328085],[5.5792244,52.327342],[5.5782933,52.326892],[5.5763289,52.325548],[5.5735318,52.323211],[5.5726784,52.322347],[5.5696649,52.319566],[5.5679855,52.317864],[5.5673577,52.317514],[5.5670559,52.317089],[5.5648156,52.315506],[5.5637794,52.314713],[5.5629812,52.313918],[5.5618355,52.312298],[5.5607541,52.310499],[5.5600036,52.309717],[5.5585762,52.30743],[5.5577618,52.306466],[5.5566506,52.304871],[5.5555916,52.303206],[5.5544836,52.301323],[5.5526947,52.297802],[5.5521416,52.29699],[5.5505449,52.293991],[5.5499214,52.292344],[5.5490292,52.290696],[5.5474456,52.288835],[5.5466328,52.287393],[5.5458601,52.285807],[5.5463378,52.285251],[5.5452023,52.28316],[5.5444842,52.281652],[5.5435135,52.279803],[5.5428102,52.278674],[5.5420941,52.277196],[5.5407073,52.274918],[5.5400748,52.274163],[5.5382237,52.271417],[5.5374962,52.270576],[5.5364253,52.269564],[5.5347107,52.268234],[5.5341268,52.267668],[5.5334272,52.266443],[5.5325158,52.265366],[5.5329084,52.265183],[5.5316058,52.263679],[5.5304912,52.263416],[5.5294751,52.263532],[5.5237572,52.263637],[5.5195187,52.263759],[5.5179088,52.263773],[5.5122228,52.26391],[5.5075764,52.264487],[5.5064452,52.264719],[5.5031044,52.264514],[5.5017206,52.264341],[5.5005851,52.264467],[5.4996203,52.264053],[5.4982119,52.263793],[5.4962085,52.263585],[5.4947022,52.263647],[5.4934655,52.263182],[5.4891889,52.262692],[5.4848573,52.260499],[5.4803811,52.25816],[5.4780643,52.257533],[5.4742309,52.256798],[5.4736366,52.257195],[5.4715311,52.261434],[5.4704111,52.26378],[5.4699588,52.265085],[5.4704561,52.265422],[5.47169,52.265294],[5.471975,52.264997],[5.4721636,52.264167],[5.4699256,52.263676],[5.4665433,52.263121],[5.4634255,52.26303],[5.4601785,52.263476],[5.4586693,52.263867],[5.4567126,52.264661],[5.4556588,52.265306],[5.4547666,52.26602],[5.4537757,52.267221],[5.4534589,52.267747],[5.4527142,52.269428],[5.4506275,52.273528],[5.449703,52.274885],[5.4491328,52.275529],[5.4480919,52.276469],[5.445763,52.278125],[5.443874,52.27908],[5.4420685,52.279798],[5.4406501,52.28024],[5.4379317,52.280847],[5.4370395,52.280985],[5.4347046,52.281183],[5.434248,52.28132],[5.4334381,52.281185],[5.4310383,52.281121],[5.4284386,52.280843],[5.4264139,52.280459],[5.4235085,52.279601],[5.4197486,52.278093],[5.417525,52.277124],[5.4124608,52.275081],[5.4118702,52.274913],[5.4101622,52.274125],[5.4081124,52.273289],[5.4079958,52.273075],[5.4071641,52.272913],[5.3977093,52.269029],[5.3962875,52.268427],[5.3942403,52.267657],[5.3922821,52.267151],[5.3908271,52.266875],[5.38944,52.266726],[5.3893927,52.266323],[5.3874461,52.266278],[5.3855978,52.266347],[5.3844389,52.266502],[5.3809277,52.26715],[5.3794381,52.267543],[5.3741979,52.270665],[5.3721881,52.271823],[5.3673326,52.274723],[5.3665908,52.275136],[5.361373,52.278254],[5.3548486,52.282073],[5.3524042,52.283529],[5.3469561,52.286712],[5.3416847,52.289865],[5.3346691,52.293978],[5.3321117,52.295526],[5.3287947,52.29746],[5.3222266,52.301062],[5.3171322,52.303722],[5.3150911,52.304746],[5.3149313,52.305],[5.3161685,52.30536],[5.3196528,52.307033],[5.3204466,52.307598],[5.3221876,52.308571],[5.3223624,52.308496],[5.3207147,52.307486],[5.319453,52.306552],[5.3166933,52.304977],[5.3162488,52.304907],[5.3153282,52.304255],[5.3121756,52.302723],[5.3106351,52.302101],[5.3088755,52.301279],[5.3059901,52.300019],[5.30436,52.299354],[5.3033175,52.299042],[5.3020439,52.2985],[5.3012351,52.298296],[5.2986279,52.297329],[5.2984373,52.297533]]},"properties":{"name":"September 7, 2025 at 15:14","time":"2025-09-07T09:58:51.000Z"},"id":"AxOTM"},
{"type":"Feature","geometry":{"type":"LineString","coordinates":[[5.2985201,52.297378],[5.2985819,52.297276],[5.2962511,52.296357],[5.2957227,52.296216],[5.2942716,52.296261],[5.2929654,52.295972],[5.2881803,52.297338],[5.2853854,52.298386],[5.2851387,52.29827],[5.283811,52.298869],[5.2823384,52.299748],[5.2804824,52.300753],[5.2800103,52.300479],[5.2786397,52.301219],[5.278688,52.301844],[5.2765717,52.302936],[5.2744984,52.303881],[5.272602,52.304394],[5.2679108,52.305352],[5.2668192,52.305511],[5.2647217,52.306061],[5.2645179,52.305577],[5.2617498,52.306026],[5.2612402,52.305575],[5.2607145,52.305483],[5.2590005,52.305672],[5.2566429,52.30609],[5.2562298,52.306385],[5.2553796,52.30618],[5.2519866,52.307287],[5.2504121,52.307383],[5.2498998,52.307255],[5.2486472,52.306622],[5.2477719,52.305689]]},"properties":{"name":"September 7, 2025 at 15:14 - LF Zuiderzeeroute - 08 - Spakenburg - Amsterdam"},"id":"k5NTk"},
{"type":"Feature","geometry":{"type":"LineString","coordinates":[[5.2477434,52.305589],[5.2470638,52.304731],[5.2463187,52.304757],[5.2427074,52.305663],[5.2411857,52.305782],[5.2416584,52.306621],[5.2427592,52.309032],[5.2426113,52.309202],[5.2414785,52.309277],[5.2405607,52.30874],[5.2402302,52.308369],[5.239136,52.308866],[5.2372095,52.30947],[5.2331229,52.310018],[5.2324024,52.309961],[5.2311793,52.310079],[5.229498,52.309982],[5.2288707,52.310111],[5.2273155,52.310098],[5.2254534,52.310362],[5.2233037,52.310116],[5.2219256,52.310208],[5.2190338,52.310006],[5.2182692,52.309824],[5.2157361,52.309512],[5.2153203,52.309553],[5.2130248,52.309283],[5.2120296,52.308201],[5.2110486,52.307727],[5.2100412,52.307419],[5.2098607,52.306106],[5.2095192,52.304481],[5.2055079,52.304598],[5.2022502,52.304909],[5.2011658,52.305143],[5.1988732,52.305363],[5.1954673,52.30483],[5.1946319,52.304515],[5.191389,52.303724],[5.189985,52.303456],[5.1885341,52.302992],[5.1857031,52.302403],[5.1855175,52.302136],[5.1864132,52.300787],[5.1875806,52.299414],[5.1884955,52.298551],[5.1886346,52.298274],[5.1877822,52.29796],[5.1862384,52.297171],[5.1844407,52.297179],[5.183495,52.297108],[5.1808925,52.29708],[5.1792762,52.297005],[5.176617,52.297034],[5.1758716,52.297472],[5.1743332,52.296953],[5.1721711,52.296745],[5.1700322,52.296619],[5.1698382,52.296358],[5.1689106,52.295826],[5.1687444,52.295562],[5.1693523,52.294511],[5.1691305,52.294132],[5.1675449,52.293831],[5.1668754,52.293832],[5.1667685,52.294708],[5.1652125,52.29522],[5.1644122,52.29502],[5.1635807,52.294556],[5.1637339,52.294239],[5.1629613,52.29379],[5.1617087,52.293457],[5.1604346,52.293426],[5.1592331,52.294188],[5.1588066,52.294623],[5.1586169,52.295236],[5.1592759,52.295994],[5.1574246,52.297048]]},"properties":{"name":"September 7, 2025 at 17:44","time":"2025-09-07T14:50:27.000Z"},"id":"gzNzU"},
{"type":"Feature","geometry":{"type":"LineString","coordinates":[[5.1447655,52.303229],[5.1434149,52.303717],[5.1433082,52.304026],[5.1444839,52.304795],[5.1446724,52.305272],[5.1446407,52.306861],[5.1442503,52.307311],[5.1432594,52.308952],[5.1423032,52.309756],[5.1420933,52.310435],[5.1424418,52.31089],[5.14414,52.31157],[5.1460533,52.313002],[5.1464383,52.313435],[5.1465684,52.314288],[5.1455501,52.315654],[5.1440109,52.317206],[5.1424665,52.318889],[5.1412607,52.319354],[5.1395617,52.319487],[5.1372232,52.319046],[5.1354618,52.318835],[5.1348753,52.319112],[5.1334062,52.320239],[5.1316859,52.321692],[5.1311228,52.3225],[5.1305701,52.322778],[5.1286443,52.324295],[5.1281558,52.324346],[5.1270018,52.323652],[5.1265094,52.323603],[5.1255091,52.32418],[5.1250331,52.324964],[5.1241881,52.325692],[5.1239141,52.326255],[5.1238276,52.327002],[5.1239504,52.327538],[5.1236383,52.32796],[5.1230199,52.328081],[5.1205538,52.328993],[5.1197971,52.329086],[5.1181036,52.327485],[5.1172992,52.326882],[5.1162368,52.327133],[5.1148324,52.32678],[5.1130821,52.327531],[5.1130251,52.327956],[5.1108075,52.3293],[5.1098999,52.329618],[5.1087852,52.330315],[5.1079189,52.330675],[5.1034632,52.333024],[5.1023424,52.334132],[5.1012662,52.334305],[5.0993392,52.335726],[5.0990134,52.336079],[5.0957319,52.337359],[5.0935649,52.338547],[5.0924588,52.338621],[5.091431,52.338494],[5.0896366,52.338567],[5.0867061,52.337401],[5.0854785,52.336754],[5.0825973,52.335453],[5.0814532,52.334647],[5.078,52.331011],[5.0771721,52.330023],[5.0756737,52.328907],[5.0752267,52.328726],[5.0738212,52.329177],[5.0731383,52.330239],[5.0728434,52.330364],[5.0720075,52.330174],[5.0712796,52.329849],[5.070295,52.329773],[5.069371,52.329935],[5.0682825,52.330314],[5.0632697,52.331114],[5.0601573,52.331482],[5.0561611,52.332021],[5.0554597,52.332079],[5.0523288,52.332018],[5.0490172,52.332036],[5.0474552,52.332104],[5.0458063,52.332326],[5.0439331,52.332463],[5.0364355,52.332502],[5.0292827,52.33251],[5.0266157,52.332621],[5.0262169,52.334222],[5.0252182,52.33468],[5.0232763,52.335123],[5.0225328,52.335405],[5.0219936,52.335798],[5.0207224,52.336466],[5.0192168,52.337415],[5.0156581,52.3395],[5.0140827,52.340543],[5.0149054,52.341347],[5.0153644,52.342091],[5.0156703,52.342887],[5.0133404,52.343579],[5.0115153,52.343927],[5.0104205,52.343964],[5.0090781,52.343803],[5.0083305,52.343577],[5.0070262,52.343405],[5.0055248,52.343404],[5.0037473,52.343868],[5.0022248,52.344009],[5.001584,52.344192],[4.9995054,52.345033],[4.9983763,52.345397],[4.9973182,52.345953],[4.9950675,52.346919],[4.9877841,52.350322],[4.9826847,52.352758],[4.9758492,52.356085],[4.9748309,52.356814],[4.973764,52.356784],[4.9719768,52.357049],[4.9711828,52.357066],[4.9696964,52.356621],[4.9686272,52.35586],[4.968197,52.355227],[4.9676953,52.354951],[4.9671421,52.355003],[4.9671809,52.355532],[4.9679923,52.355811],[4.968036,52.356029],[4.9654627,52.356338],[4.9634145,52.356768],[4.9618671,52.357244],[4.9607321,52.357784],[4.9599474,52.358296],[4.9583066,52.359769],[4.957608,52.361437],[4.9571308,52.363512],[4.9568788,52.36419],[4.9565221,52.365938],[4.956182,52.366068],[4.9550489,52.366056],[4.9504921,52.366128],[4.948133,52.366029],[4.947473,52.366256],[4.9456636,52.366223],[4.9449448,52.366292],[4.9429492,52.366151],[4.9414725,52.366234],[4.9392061,52.366181],[4.9369406,52.366203],[4.9344644,52.366149],[4.9336983,52.366358],[4.9331934,52.366171],[4.9308519,52.366157],[4.9271218,52.366078],[4.9266762,52.366187],[4.9250543,52.367112],[4.9241844,52.366751],[4.9235802,52.366322],[4.9211285,52.364801],[4.9210368,52.364508],[4.9218207,52.36402],[4.9216511,52.363684],[4.9198113,52.363473],[4.9187682,52.3636],[4.9178741,52.363312],[4.9157555,52.362827],[4.9130898,52.36244],[4.9111349,52.361896],[4.9093983,52.361661],[4.9083467,52.361369],[4.9047285,52.360557],[4.9031913,52.360253],[4.9022891,52.360162],[4.8995842,52.359721],[4.8971849,52.359385],[4.8941302,52.359543],[4.8932518,52.359658],[4.8897913,52.359793],[4.8857368,52.361804],[4.8846013,52.362215],[4.8839159,52.36261],[4.8825337,52.362255],[4.8816905,52.361726],[4.8802507,52.361147],[4.8790775,52.360795],[4.8776355,52.360624],[4.8760516,52.36032],[4.8749066,52.359505],[4.8744529,52.358815],[4.8735072,52.358323],[4.8715947,52.357983],[4.8705574,52.357537],[4.8693459,52.357496],[4.8678263,52.356835],[4.8651715,52.356227],[4.8628773,52.356118],[4.8617371,52.355985],[4.8596153,52.355392],[4.8583821,52.355184],[4.856999,52.35522],[4.8553427,52.354913],[4.8553856,52.354295],[4.8559009,52.35354],[4.8561766,52.352297],[4.8571009,52.35009],[4.856914,52.349762],[4.8571929,52.349043],[4.8573472,52.346744],[4.8572409,52.345972],[4.8573451,52.345364],[4.8565233,52.345156],[4.8563544,52.344927],[4.8569484,52.342967],[4.8574192,52.342222],[4.8575402,52.341567],[4.8571617,52.339604],[4.8570909,52.338517],[4.8572549,52.337481],[4.857186,52.334419],[4.8569468,52.334324],[4.8548031,52.334372],[4.8545,52.33514],[4.8539666,52.335627],[4.8514516,52.335535],[4.8514181,52.334677],[4.8504872,52.334608],[4.8496598,52.334402]]},"properties":{"name":"September 8, 2025 at 13:49","time":"2025-09-08T08:57:04.000Z"},"id":"Y3MDI"},
{"type":"Feature","geometry":{"type":"LineString","coordinates":[[4.8574811,52.340967],[4.8578626,52.341105],[4.8581204,52.341779],[4.8576739,52.342271],[4.8569742,52.34457],[4.8572191,52.344955],[4.8578972,52.345035],[4.8579289,52.346768],[4.8577194,52.349185],[4.858061,52.349544],[4.8572141,52.350561],[4.8565181,52.351928],[4.8556802,52.35436],[4.8556427,52.354866],[4.8564149,52.355067],[4.8585346,52.355112],[4.8598949,52.355354],[4.8609711,52.35574],[4.8620305,52.355983],[4.8634943,52.356168],[4.8648952,52.356142],[4.8658157,52.356234],[4.8670833,52.356548],[4.8680571,52.35699],[4.8695029,52.357501],[4.8709243,52.357646],[4.8719726,52.358041],[4.8728368,52.358172],[4.8741808,52.35862],[4.875034,52.359674],[4.8759378,52.360292],[4.8771921,52.360598],[4.8788641,52.360768],[4.8804537,52.361331],[4.8817964,52.361717],[4.8826556,52.362264],[4.8838502,52.362415],[4.8848381,52.362017],[4.886479,52.3612],[4.8868028,52.361254],[4.8873347,52.362032],[4.8888544,52.363666],[4.8892517,52.364294],[4.8902052,52.365137],[4.8903002,52.36541],[4.8881654,52.366673],[4.8897339,52.367177],[4.8896969,52.367646],[4.8888776,52.368328],[4.8893954,52.368746],[4.8894896,52.369471],[4.8901565,52.370577],[4.8907444,52.371037],[4.8908545,52.371811],[4.8906956,52.373154],[4.8909818,52.373972],[4.8914413,52.374325],[4.8922863,52.375339],[4.8939576,52.376485],[4.8950594,52.377144],[4.8957079,52.377808],[4.89728,52.377982],[4.8972837,52.378413],[4.8980437,52.379044],[4.8993599,52.378779]]},"properties":{"name":"September 11, 2025 at 08:02","time":"2025-09-11T05:30:07.000Z"},"id":"AwOTE"}
]}
