{"type":"FeatureCollection", "features": [
{"type":"Feature","geometry":{"type":"Point","coordinates":[-3.238083,48.791461]},"properties":{"name":"Besuch in Treguier"},"id":"E5NDM"},
{"type":"Feature","geometry":{"type":"Point","coordinates":[-3.458148,48.731174]},"properties":{"name":"Crépe Restaurant"},"id":"k2NjM"},
{"type":"Feature","geometry":{"type":"Point","coordinates":[-3.194146,48.820958]},"properties":{"name":"Dorf mit Hunden"},"id":"c3Mjc"},
{"type":"Feature","geometry":{"type":"Point","coordinates":[-3.105553,48.862015]},"properties":{"name":"Garten mit Huhn"},"id":"Y3OTg"},
{"type":"Feature","geometry":{"type":"Point","coordinates":[-3.311144,48.833778]},"properties":{"name":"großes Anwesen"},"id":"kxMDM"},
{"type":"Feature","geometry":{"type":"Point","coordinates":[-3.141789,48.555748]},"properties":{"name":"Guingamp Bahnhof"},"id":"U5ODc"},
{"type":"Feature","geometry":{"type":"Point","coordinates":[-3.447567,48.749349]},"properties":{"name":"kurz vor Lannion"},"id":"c4OTc"},
{"type":"Feature","geometry":{"type":"Point","coordinates":[-3.100422,48.791775]},"properties":{"name":"Lézardrieux"},"id":"kxMDY"},
{"type":"Feature","geometry":{"type":"Point","coordinates":[-3.408562,48.796207]},"properties":{"name":"Loannec"},"id":"I5Njk"},
{"type":"Feature","geometry":{"type":"Point","coordinates":[-3.060905,48.816087]},"properties":{"name":"Loguivy de la Mer"},"id":"U3Njc"},
{"type":"Feature","geometry":{"type":"Point","coordinates":[-3.046051,48.776976]},"properties":{"name":"Paimpol (Start)"},"id":"I0NDE"},
{"type":"Feature","geometry":{"type":"Point","coordinates":[-3.228342,48.842471]},"properties":{"name":"Plougrescant"},"id":"Y5NTg"},
{"type":"Feature","geometry":{"type":"Point","coordinates":[-3.384191,48.814395]},"properties":{"name":"Port l'Epine"},"id":"QwMTg"},
{"type":"Feature","geometry":{"type":"Point","coordinates":[-3.454809,48.728992]},"properties":{"name":"Schule in Lannion"},"id":"g0ODE"},
{"type":"Feature","geometry":{"type":"LineString","coordinates":[[-3.23788,48.792328],[-3.238009,48.792566],[-3.238302,48.792861],[-3.23837,48.79299],[-3.238542,48.793129],[-3.238641,48.793339],[-3.238864,48.793545],[-3.239002,48.793819],[-3.239176,48.794013],[-3.239331,48.794344],[-3.239468,48.794562],[-3.239913,48.794801],[-3.240293,48.795131],[-3.240654,48.795645],[-3.240692,48.795906],[-3.241043,48.796488],[-3.241151,48.796814],[-3.241069,48.796982],[-3.239988,48.797154],[-3.239717,48.79725],[-3.239479,48.797298],[-3.239213,48.7973],[-3.238997,48.797377],[-3.238868,48.797566],[-3.238712,48.797577],[-3.238571,48.797783],[-3.238003,48.798065],[-3.237283,48.798363],[-3.236912,48.798486],[-3.236584,48.798624],[-3.236067,48.798897],[-3.235756,48.79914],[-3.235337,48.799591],[-3.234874,48.800061],[-3.234522,48.800359],[-3.234285,48.800531],[-3.234034,48.800766],[-3.233873,48.800828],[-3.233551,48.800889],[-3.232657,48.801179],[-3.232309,48.801275],[-3.231642,48.801511],[-3.231184,48.801624],[-3.230856,48.801618],[-3.230356,48.801561],[-3.229794,48.801458],[-3.229311,48.801425],[-3.228532,48.801559],[-3.228076,48.801729],[-3.227753,48.801888],[-3.227504,48.801979],[-3.227207,48.802232],[-3.227141,48.80236],[-3.227094,48.802664],[-3.226978,48.802883],[-3.226671,48.8031],[-3.226455,48.803295],[-3.226103,48.803532],[-3.225869,48.803639],[-3.225377,48.803986],[-3.224961,48.804372],[-3.224626,48.804801],[-3.224407,48.805027],[-3.22403,48.805335],[-3.223729,48.805532],[-3.223328,48.805719],[-3.222331,48.806227],[-3.222135,48.806356],[-3.221816,48.806505],[-3.22032,48.806852],[-3.220103,48.806874],[-3.219338,48.807038],[-3.218916,48.807199],[-3.218336,48.80747],[-3.218249,48.807481],[-3.217968,48.807736],[-3.217771,48.807989],[-3.217749,48.808645],[-3.217763,48.808965],[-3.217731,48.80917],[-3.217643,48.809353],[-3.217417,48.809636],[-3.21714,48.809844],[-3.216882,48.810082],[-3.216411,48.810264],[-3.216065,48.810568],[-3.21565,48.810849],[-3.214935,48.811121],[-3.214468,48.811498],[-3.214393,48.811664],[-3.214308,48.81169],[-3.213834,48.812118],[-3.213692,48.812313],[-3.213672,48.812527],[-3.213586,48.812726],[-3.213398,48.812935],[-3.212883,48.813131],[-3.212352,48.813356],[-3.212268,48.813643],[-3.212297,48.813805],[-3.212587,48.814577],[-3.212789,48.81496],[-3.212808,48.815094],[-3.212944,48.815316],[-3.212952,48.815851],[-3.212978,48.81603],[-3.213155,48.816247],[-3.213343,48.81642],[-3.213635,48.816636],[-3.213748,48.816799],[-3.21368,48.816941],[-3.213454,48.817094],[-3.213227,48.81731],[-3.212892,48.817511],[-3.21243,48.817598],[-3.211876,48.817533],[-3.211613,48.81753],[-3.211439,48.817576],[-3.211244,48.817744],[-3.211118,48.818127],[-3.211021,48.818283],[-3.210953,48.818619],[-3.210989,48.818888],[-3.211087,48.819227],[-3.211135,48.819772],[-3.211053,48.819936],[-3.210936,48.820043],[-3.210439,48.820242],[-3.209899,48.820508],[-3.209531,48.82089],[-3.209342,48.821207],[-3.209181,48.821403],[-3.209069,48.82161],[-3.208852,48.821867],[-3.20863,48.822206],[-3.208319,48.822547],[-3.208548,48.822853],[-3.208925,48.823174],[-3.209353,48.823501],[-3.209684,48.823586],[-3.21004,48.823624],[-3.21013,48.823777],[-3.209853,48.82426],[-3.209644,48.824405],[-3.209373,48.824779],[-3.208857,48.824938],[-3.205619,48.835361],[-3.205911,48.835494],[-3.206047,48.835617],[-3.206209,48.83568],[-3.206662,48.836063],[-3.206921,48.836391],[-3.206926,48.836464],[-3.206733,48.836636],[-3.206679,48.83687],[-3.206571,48.836991],[-3.206128,48.837259],[-3.206004,48.837303],[-3.206047,48.837444],[-3.206226,48.837653],[-3.20651,48.837856],[-3.206832,48.838199],[-3.206879,48.838318],[-3.207075,48.838282],[-3.207301,48.838016],[-3.207475,48.837905],[-3.207587,48.837607],[-3.207557,48.837456],[-3.207854,48.837352],[-3.208266,48.837161],[-3.208557,48.837057],[-3.209059,48.836768],[-3.209341,48.836702],[-3.209871,48.836696],[-3.210738,48.836537],[-3.21111,48.836573],[-3.211603,48.836692],[-3.211963,48.836736],[-3.212196,48.836731],[-3.212344,48.83667],[-3.212505,48.836531],[-3.212816,48.836426],[-3.212847,48.836369],[-3.213541,48.836125],[-3.214115,48.835966],[-3.21446,48.835906],[-3.215384,48.835945],[-3.215698,48.835918],[-3.216261,48.835903],[-3.216583,48.835806],[-3.216609,48.835694],[-3.216453,48.835463],[-3.216454,48.835301],[-3.216639,48.835132],[-3.217126,48.834855],[-3.217379,48.834668],[-3.21759,48.834426],[-3.218063,48.834108],[-3.218419,48.833827],[-3.218662,48.833589],[-3.219581,48.833643],[-3.219944,48.833698],[-3.220269,48.833871],[-3.220493,48.834096],[-3.221262,48.834524],[-3.221482,48.834709],[-3.221689,48.834807],[-3.221847,48.834963],[-3.222308,48.835242],[-3.222632,48.835355],[-3.222782,48.835481],[-3.223096,48.835634],[-3.223305,48.835865],[-3.223336,48.835998],[-3.223554,48.836326],[-3.2238,48.836585],[-3.22398,48.83686],[-3.224092,48.836941],[-3.224254,48.837258],[-3.224653,48.837728],[-3.224867,48.837899],[-3.225128,48.838055],[-3.22525,48.838176],[-3.22543,48.838271],[-3.22556,48.838405],[-3.225788,48.838745],[-3.226031,48.83889],[-3.226439,48.839051],[-3.226815,48.839266],[-3.226986,48.839316],[-3.227286,48.839491],[-3.22781,48.839858],[-3.227977,48.840012],[-3.228082,48.840225],[-3.228446,48.840479],[-3.228778,48.840524],[-3.228926,48.840655],[-3.228775,48.840924],[-3.228881,48.84123],[-3.228975,48.841855],[-3.22884,48.841932],[-3.228845,48.84209],[-3.22878,48.84218],[-3.228913,48.842418],[-3.228981,48.842755],[-3.229111,48.842848],[-3.229271,48.842875],[-3.229439,48.842978],[-3.229846,48.843153],[-3.230252,48.843289],[-3.230696,48.843405],[-3.230889,48.843607],[-3.231018,48.843656],[-3.231324,48.843671],[-3.231799,48.843737],[-3.231846,48.843893],[-3.232193,48.843972],[-3.232476,48.844089],[-3.232704,48.84423],[-3.232727,48.844297],[-3.233271,48.84474],[-3.233529,48.844797],[-3.234263,48.845125],[-3.234346,48.845203],[-3.234511,48.84559],[-3.234704,48.845778],[-3.235313,48.84604],[-3.235895,48.846163],[-3.236158,48.846253],[-3.236722,48.846666],[-3.236903,48.846728],[-3.237434,48.846793],[-3.238442,48.846831],[-3.238535,48.846867],[-3.239127,48.846916],[-3.239429,48.847034],[-3.240125,48.847232],[-3.240718,48.847334],[-3.240916,48.847294],[-3.241568,48.847294],[-3.241847,48.847262],[-3.242288,48.847291],[-3.24252,48.847349],[-3.242631,48.847499],[-3.242824,48.847641],[-3.242955,48.847803],[-3.243068,48.847848],[-3.243683,48.847962],[-3.244092,48.847993],[-3.244265,48.848048],[-3.244386,48.848155],[-3.244751,48.848302],[-3.244893,48.84849],[-3.245908,48.849211],[-3.246066,48.849274],[-3.24658,48.849694],[-3.246603,48.849783],[-3.247044,48.849909],[-3.247368,48.849975],[-3.247677,48.850004],[-3.248045,48.849957],[-3.248557,48.849848],[-3.248946,48.84982],[-3.249238,48.849829],[-3.249747,48.849902],[-3.250088,48.850011],[-3.250219,48.850083],[-3.250417,48.850094],[-3.25083,48.84999],[-3.25089,48.849883],[-3.251175,48.849772],[-3.251422,48.849615],[-3.25191,48.849413],[-3.252484,48.849259],[-3.252974,48.849056],[-3.253202,48.848877],[-3.253723,48.848613],[-3.253898,48.848469],[-3.254119,48.84843],[-3.254494,48.848292],[-3.25463,48.848302],[-3.254825,48.848236],[-3.255134,48.848007],[-3.255317,48.847924],[-3.256276,48.847743],[-3.256596,48.847718],[-3.256976,48.847595],[-3.257044,48.847513],[-3.256967,48.847391],[-3.256671,48.847263],[-3.25658,48.84709],[-3.256587,48.846848],[-3.256536,48.846587],[-3.256642,48.846412],[-3.25661,48.846338],[-3.256721,48.845991],[-3.256703,48.845844],[-3.256879,48.845703],[-3.256985,48.845551],[-3.257172,48.845459],[-3.257138,48.845326],[-3.256649,48.845324],[-3.256116,48.845217],[-3.255506,48.84515],[-3.255166,48.845083],[-3.254997,48.84489],[-3.254866,48.844629],[-3.254877,48.84408],[-3.254826,48.8438],[-3.254895,48.843507],[-3.255101,48.842951],[-3.255299,48.842616],[-3.255581,48.842343],[-3.255669,48.842138],[-3.255931,48.841959],[-3.256174,48.841622],[-3.256477,48.841242],[-3.256525,48.84113],[-3.256803,48.840792],[-3.257234,48.840423],[-3.257651,48.839817],[-3.257642,48.839734],[-3.263157,48.83464],[-3.263411,48.834526],[-3.263904,48.834344],[-3.264501,48.834176],[-3.264653,48.834113],[-3.265101,48.834035],[-3.2658,48.833951],[-3.266503,48.83389],[-3.267437,48.833851],[-3.268411,48.833843],[-3.268882,48.83389],[-3.269474,48.833927],[-3.269777,48.833888],[-3.2701,48.833954],[-3.270774,48.834288],[-3.271073,48.834401],[-3.271388,48.834453],[-3.271598,48.834436],[-3.272993,48.83516],[-3.273317,48.835299],[-3.273969,48.835426],[-3.274364,48.835427],[-3.27537,48.83556],[-3.275623,48.835543],[-3.275842,48.835482],[-3.276013,48.835369],[-3.276172,48.835202],[-3.27645,48.834995],[-3.276681,48.834903],[-3.276988,48.834914],[-3.277143,48.83499],[-3.27745,48.835059],[-3.278115,48.835143],[-3.278564,48.835155],[-3.278787,48.835078],[-3.279529,48.834955],[-3.279762,48.83483],[-3.280222,48.834462],[-3.280446,48.834071],[-3.280667,48.833849],[-3.280853,48.833723],[-3.281358,48.833747],[-3.281624,48.833803],[-3.282018,48.833788],[-3.282466,48.833798],[-3.283034,48.833841],[-3.283328,48.833953],[-3.283599,48.834249],[-3.284179,48.834492],[-3.28479,48.834594],[-3.285147,48.83456],[-3.285772,48.834528],[-3.286026,48.834467],[-3.286414,48.83448],[-3.286911,48.834416],[-3.287209,48.834354],[-3.28747,48.834261],[-3.287509,48.834224],[-3.287581,48.834162],[-3.287615,48.834135],[-3.287683,48.834052],[-3.287745,48.83405]]},"properties":{"name":"Aufzeichnung am 02.09.2024 09:02:04","type":"trackHikingTourTrail","time":"2024-09-02T07:02:08.374Z"},"id":"Q4MDQ"},
{"type":"Feature","geometry":{"type":"LineString","coordinates":[[-3.447717,48.74898],[-3.447845,48.748901],[-3.44804,48.748691],[-3.448212,48.748596],[-3.448279,48.748489],[-3.448581,48.748229],[-3.448914,48.748025],[-3.44914,48.747929],[-3.449231,48.74779],[-3.449809,48.747414],[-3.449985,48.747214],[-3.450141,48.747099],[-3.45039,48.746816],[-3.450547,48.746703],[-3.450774,48.746436],[-3.450806,48.746303],[-3.450923,48.746169],[-3.450973,48.745992],[-3.451215,48.745648],[-3.451289,48.745474],[-3.451502,48.745297],[-3.451749,48.745008],[-3.451883,48.744741],[-3.452101,48.744659],[-3.452082,48.744466],[-3.452159,48.74431],[-3.452284,48.744216],[-3.452215,48.744073],[-3.452239,48.743947],[-3.452452,48.743899],[-3.452443,48.743752],[-3.452569,48.74344],[-3.452769,48.74315],[-3.452813,48.743025],[-3.452754,48.74294],[-3.452798,48.742738],[-3.452976,48.742161],[-3.453045,48.742026],[-3.453025,48.741469],[-3.453089,48.741313],[-3.45309,48.741003],[-3.453044,48.740521],[-3.452956,48.740336],[-3.453047,48.74022],[-3.452988,48.740096],[-3.45311,48.739823],[-3.453317,48.739569],[-3.453425,48.739502],[-3.453712,48.739234],[-3.453785,48.739122],[-3.454052,48.738924],[-3.454466,48.738517],[-3.454746,48.738162],[-3.454859,48.737961],[-3.455066,48.737909],[-3.455038,48.737652],[-3.455117,48.737426],[-3.455221,48.737304],[-3.455323,48.737088],[-3.455336,48.736736],[-3.455289,48.736469],[-3.455082,48.736103],[-3.45502,48.735867],[-3.455077,48.735636],[-3.455213,48.735511],[-3.455296,48.735337],[-3.455286,48.735177],[-3.455413,48.735001],[-3.455342,48.734762],[-3.455406,48.73446],[-3.455549,48.734223],[-3.455687,48.73418],[-3.456151,48.734153],[-3.456341,48.73405],[-3.456603,48.733975],[-3.456771,48.73399],[-3.456966,48.733883],[-3.45726,48.733872],[-3.457437,48.733809],[-3.457036,48.733517],[-3.457031,48.733037],[-3.45669,48.73278],[-3.45657,48.732659],[-3.456353,48.732565],[-3.456227,48.732464],[-3.456464,48.732388],[-3.456779,48.732207],[-3.457097,48.731876],[-3.457334,48.731715],[-3.457403,48.731584],[-3.457214,48.731469],[-3.457091,48.731452],[-3.456974,48.731252],[-3.456698,48.731153],[-3.456201,48.730939],[-3.455843,48.730873],[-3.455632,48.730737],[-3.455219,48.730535],[-3.454827,48.730424],[-3.454356,48.730362],[-3.453644,48.730186],[-3.453551,48.730109],[-3.453587,48.729934],[-3.453516,48.729838],[-3.453349,48.729384],[-3.453592,48.729215],[-3.453879,48.729152],[-3.453966,48.729042],[-3.454202,48.728902],[-3.454615,48.728853],[-3.454778,48.728884],[-3.455062,48.728651],[-3.455241,48.728565],[-3.455287,48.728473],[-3.455141,48.728342],[-3.455132,48.728225],[-3.455473,48.728214]]},"properties":{"name":"Aufzeichnung am 06.09.2024 08:42:54","type":"hikingTourTrail"},"id":"M5OTU"},
{"type":"Feature","geometry":{"type":"LineString","coordinates":[[-3.039543,48.789966],[-3.039516,48.789977],[-3.039477,48.789978],[-3.039449,48.789982],[-3.039414,48.789989],[-3.039371,48.789994],[-3.039333,48.789989],[-3.039285,48.789986],[-3.039253,48.789985],[-3.039179,48.789969],[-3.039092,48.78998],[-3.039036,48.790009],[-3.039013,48.790025],[-3.038989,48.790045],[-3.038969,48.79006],[-3.038874,48.790088],[-3.038842,48.79008],[-3.038806,48.790035],[-3.038681,48.789964],[-3.038167,48.789854],[-3.038004,48.789792],[-3.037521,48.789768],[-3.036761,48.789861],[-3.036213,48.789727],[-3.035959,48.78973],[-3.035633,48.789803],[-3.035352,48.789928],[-3.035074,48.789984],[-3.034135,48.79036],[-3.033692,48.790472],[-3.033305,48.790692],[-3.033161,48.790846],[-3.03269,48.791103],[-3.032423,48.79135],[-3.032009,48.791592],[-3.031858,48.791615],[-3.031161,48.791795],[-3.030812,48.791903],[-3.03045,48.792072],[-3.030134,48.792169],[-3.030012,48.792245],[-3.029799,48.792543],[-3.029596,48.792702],[-3.029473,48.792741],[-3.029146,48.793053],[-3.028919,48.79322],[-3.028486,48.793959],[-3.028249,48.794231],[-3.027838,48.794503],[-3.027544,48.79489],[-3.027328,48.795062],[-3.027271,48.795192],[-3.026815,48.795621],[-3.026755,48.795806],[-3.026645,48.795906],[-3.026511,48.796138],[-3.026359,48.796229],[-3.025852,48.796329],[-3.025584,48.796421],[-3.025165,48.796515],[-3.02464,48.796761],[-3.024507,48.796888],[-3.02425,48.797006],[-3.024201,48.797129],[-3.023983,48.797261],[-3.023725,48.797599],[-3.023607,48.797914],[-3.023437,48.798103],[-3.022987,48.798254],[-3.022881,48.798445],[-3.022696,48.798594],[-3.022746,48.798842],[-3.022668,48.798882],[-3.022338,48.798864],[-3.021513,48.798887],[-3.021304,48.798934],[-3.021077,48.799074],[-3.020694,48.799215],[-3.020365,48.799424],[-3.020218,48.799626],[-3.020428,48.799802],[-3.020579,48.80008],[-3.020973,48.800462],[-3.020915,48.800724],[-3.020775,48.800876],[-3.020273,48.801189],[-3.019887,48.80141],[-3.019555,48.801513],[-3.019397,48.80167],[-3.019481,48.801039],[-3.019192,48.800573],[-3.019048,48.800491],[-3.018934,48.800227],[-3.018956,48.800071],[-3.018892,48.799932],[-3.018667,48.799792],[-3.018386,48.799747],[-3.017703,48.799785],[-3.017617,48.799624],[-3.017529,48.799592],[-3.016963,48.799685],[-3.016826,48.799688],[-3.01626,48.799796],[-3.016001,48.79966],[-3.015478,48.799467],[-3.015097,48.799408],[-3.015063,48.799245],[-3.014901,48.799136],[-3.01434,48.799065],[-3.013898,48.799135],[-3.013682,48.799253],[-3.013528,48.799386],[-3.013316,48.799377],[-3.012902,48.799417],[-3.012557,48.799539],[-3.012234,48.799771],[-3.012114,48.799814],[-3.011948,48.799957],[-3.011516,48.800089],[-3.011301,48.800286],[-3.011215,48.800314],[-3.010766,48.800329],[-3.01008,48.800304],[-3.009761,48.800361],[-3.009488,48.800294],[-3.00903,48.800321],[-3.008818,48.800376],[-3.00862,48.800327],[-3.008232,48.800345],[-3.007818,48.800254],[-3.007396,48.800132],[-3.007108,48.800017],[-3.006431,48.799849],[-3.006241,48.799867],[-3.005894,48.8],[-3.005731,48.800158],[-3.005589,48.80022],[-3.005489,48.800397],[-3.005294,48.800606],[-3.005232,48.800732],[-3.005291,48.80119],[-3.005195,48.801331],[-3.005089,48.801595],[-3.004992,48.801705],[-3.004913,48.801914],[-3.00474,48.802118],[-3.00451,48.802287],[-3.004326,48.802543],[-3.004058,48.802777],[-3.003897,48.802831],[-3.003782,48.802935],[-3.003635,48.803184],[-3.003369,48.803308],[-3.003556,48.803631],[-3.003593,48.803804],[-3.003755,48.803955],[-3.003793,48.804089],[-3.004158,48.804214],[-3.0048,48.804214],[-3.004914,48.804373],[-3.005216,48.804348],[-3.00588,48.804233],[-3.006174,48.804229],[-3.006508,48.804165],[-3.007367,48.803883],[-3.007843,48.80377],[-3.008168,48.803727],[-3.00832,48.803746],[-3.008772,48.80366],[-3.008924,48.803532],[-3.009204,48.803393],[-3.009428,48.803149],[-3.009632,48.80303],[-3.010068,48.802701],[-3.010332,48.802707],[-3.010528,48.802957],[-3.010515,48.803048],[-3.010641,48.803212],[-3.010677,48.803405],[-3.010826,48.803688],[-3.01138,48.804057],[-3.01176,48.804213],[-3.011969,48.804376],[-3.012107,48.804432],[-3.012718,48.804603],[-3.013511,48.805005],[-3.013748,48.805086],[-3.014023,48.805278],[-3.014858,48.805693],[-3.015018,48.805825],[-3.015063,48.805983],[-3.014971,48.806197],[-3.014793,48.806504],[-3.014882,48.806589],[-3.015257,48.806789],[-3.015533,48.806884],[-3.015834,48.807063],[-3.015876,48.807195],[-3.015757,48.807321],[-3.015011,48.807542],[-3.014841,48.807574],[-3.014635,48.807685],[-3.014621,48.807763],[-3.014991,48.808148],[-3.015145,48.808447],[-3.015442,48.808721],[-3.015743,48.809064],[-3.015809,48.809191],[-3.015984,48.809376],[-3.016048,48.809509],[-3.016357,48.809917],[-3.016403,48.810053],[-3.016522,48.810176],[-3.016764,48.810551],[-3.016873,48.810675],[-3.017028,48.811168],[-3.017145,48.811317],[-3.017161,48.811656],[-3.017114,48.81178],[-3.017111,48.81211],[-3.017053,48.812246],[-3.016532,48.812643],[-3.016487,48.812736],[-3.01584,48.813232],[-3.015768,48.813349],[-3.015953,48.813477],[-3.015814,48.813657],[-3.015568,48.813665],[-3.015507,48.813713],[-3.015463,48.814073],[-3.015272,48.814217],[-3.015288,48.814346],[-3.015591,48.814567],[-3.015917,48.815412],[-3.016017,48.815756],[-3.016115,48.815852],[-3.016206,48.816304],[-3.016199,48.816688],[-3.01614,48.816814],[-3.015828,48.817154],[-3.015179,48.817359],[-3.015038,48.817461],[-3.015042,48.817573],[-3.014884,48.818003],[-3.014912,48.818091],[-3.015153,48.818254],[-3.015429,48.818303],[-3.015885,48.818148],[-3.016066,48.818013],[-3.016331,48.817947],[-3.016964,48.817728],[-3.017229,48.817692],[-3.017321,48.817763],[-3.017404,48.818003],[-3.017793,48.818191],[-3.017838,48.818291],[-3.017848,48.818583],[-3.017703,48.818741],[-3.017445,48.819139],[-3.017346,48.81946],[-3.017158,48.819563],[-3.016738,48.819878],[-3.016368,48.820079],[-3.016456,48.820168],[-3.016857,48.820363],[-3.017098,48.820439],[-3.017124,48.820627],[-3.016902,48.820615],[-3.016375,48.820695],[-3.01627,48.820783],[-3.016242,48.820948],[-3.015966,48.821151],[-3.016022,48.821293],[-3.016556,48.821349],[-3.017261,48.821263],[-3.017543,48.821198],[-3.017905,48.82116],[-3.01833,48.821052],[-3.01844,48.82099],[-3.019025,48.820813],[-3.018923,48.82073],[-3.024336,48.820612],[-3.050152,48.816064],[-3.050723,48.815852],[-3.051322,48.815726],[-3.051744,48.815588],[-3.052103,48.815514],[-3.052486,48.815389],[-3.052872,48.815336],[-3.052996,48.815292],[-3.053287,48.815274],[-3.053963,48.815419],[-3.054131,48.815438],[-3.054751,48.815637],[-3.055296,48.815874],[-3.055582,48.816024],[-3.056008,48.816294],[-3.056364,48.816552],[-3.05666,48.816681],[-3.056799,48.816681],[-3.057507,48.816814],[-3.058804,48.816581],[-3.059186,48.816549],[-3.059749,48.816423],[-3.059957,48.816418],[-3.060316,48.816344],[-3.060724,48.816191],[-3.060848,48.816107],[-3.06092,48.815938]]},"properties":{"name":"Aufzeichnung am 28.08.2024 09:57:54","type":"trackHikingTourTrail","time":"2024-08-28T07:57:55.999Z"},"id":"YxNjE"},
{"type":"Feature","geometry":{"type":"LineString","coordinates":[[-3.101154,48.792432],[-3.101232,48.792475],[-3.101576,48.792536],[-3.101774,48.79286],[-3.101823,48.793005],[-3.102196,48.793264],[-3.102314,48.79342],[-3.10213,48.793465],[-3.101895,48.793368],[-3.101622,48.793213],[-3.101277,48.793202],[-3.100915,48.793234],[-3.100771,48.793275],[-3.100597,48.793613],[-3.100509,48.794107],[-3.100428,48.794214],[-3.100418,48.794468],[-3.100315,48.794701],[-3.100266,48.794932],[-3.100222,48.795674],[-3.100035,48.79624],[-3.100133,48.796557],[-3.100268,48.796676],[-3.100356,48.796857],[-3.100393,48.797188],[-3.100341,48.797326],[-3.099999,48.797594],[-3.099718,48.797931],[-3.099606,48.798105],[-3.099547,48.798285],[-3.099588,48.798375],[-3.099946,48.798504],[-3.100342,48.798561],[-3.100562,48.798623],[-3.101084,48.798647],[-3.101191,48.798833],[-3.101456,48.798903],[-3.101414,48.799026],[-3.101267,48.799151],[-3.101238,48.799271],[-3.101094,48.799357],[-3.100975,48.799499],[-3.100976,48.799736],[-3.101137,48.799863],[-3.10181,48.799673],[-3.10197,48.799611],[-3.102322,48.799691],[-3.102393,48.800021],[-3.10266,48.800329],[-3.102879,48.80053],[-3.103124,48.800852],[-3.103063,48.801097],[-3.102955,48.801217],[-3.102676,48.801436],[-3.102416,48.801748],[-3.101824,48.802035],[-3.101572,48.802203],[-3.101318,48.802295],[-3.101256,48.802394],[-3.100894,48.802472],[-3.100685,48.802553],[-3.100587,48.802661],[-3.100487,48.802874],[-3.100487,48.803035],[-3.100587,48.803211],[-3.100755,48.803351],[-3.100445,48.803556],[-3.100198,48.803785],[-3.099708,48.804129],[-3.098794,48.804643],[-3.098645,48.804798],[-3.09826,48.805077],[-3.098222,48.805146],[-3.097917,48.80542],[-3.097661,48.805568],[-3.097583,48.805765],[-3.097659,48.805895],[-3.097169,48.806214],[-3.097191,48.806381],[-3.097297,48.806555],[-3.097656,48.8068],[-3.097814,48.806786],[-3.097954,48.806702],[-3.098054,48.806914],[-3.098182,48.807064],[-3.098318,48.807407],[-3.09855,48.807553],[-3.099104,48.80769],[-3.099674,48.807719],[-3.100023,48.807809],[-3.100041,48.807922],[-3.102632,48.812228],[-3.10242,48.812553],[-3.102431,48.812616],[-3.102009,48.813282],[-3.101912,48.8135],[-3.101626,48.813977],[-3.101512,48.814319],[-3.101422,48.814393],[-3.101258,48.814677],[-3.101117,48.81501],[-3.101068,48.815201],[-3.100856,48.815273],[-3.099734,48.815348],[-3.099392,48.815419],[-3.098595,48.815526],[-3.098055,48.815559],[-3.097542,48.81565],[-3.097066,48.815797],[-3.096583,48.815886],[-3.095776,48.815898],[-3.095394,48.815962],[-3.095167,48.815951],[-3.094693,48.815989],[-3.094268,48.815997],[-3.093777,48.81597],[-3.093177,48.815869],[-3.092792,48.815851],[-3.092489,48.8162],[-3.092446,48.816487],[-3.092309,48.816773],[-3.092133,48.816938],[-3.092206,48.81729],[-3.092497,48.817603],[-3.092718,48.817923],[-3.092815,48.818173],[-3.093016,48.818366],[-3.093268,48.81885],[-3.093355,48.819351],[-3.093338,48.819634],[-3.093198,48.819677],[-3.091952,48.819538],[-3.091395,48.819606],[-3.090448,48.819564],[-3.090157,48.819641],[-3.090013,48.819899],[-3.090012,48.820308],[-3.09005,48.820493],[-3.090173,48.820771],[-3.090144,48.820869],[-3.089885,48.821055],[-3.089715,48.821252],[-3.089513,48.821669],[-3.089477,48.821992],[-3.08954,48.822313],[-3.089426,48.822613],[-3.089304,48.822819],[-3.089018,48.823152],[-3.088787,48.823531],[-3.088407,48.824053],[-3.088197,48.824414],[-3.088193,48.824624],[-3.088114,48.82486],[-3.088201,48.825223],[-3.088201,48.825445],[-3.088096,48.825692],[-3.087949,48.825826],[-3.087901,48.82599],[-3.087945,48.82618],[-3.088273,48.826325],[-3.088561,48.82631],[-3.088894,48.826509],[-3.089123,48.826605],[-3.089838,48.826617],[-3.090539,48.826771],[-3.091364,48.826885],[-3.09184,48.826877],[-3.09222,48.826819],[-3.09281,48.826628],[-3.093044,48.826591],[-3.093248,48.826499],[-3.093836,48.826311],[-3.094215,48.826279],[-3.094683,48.826191],[-3.094845,48.826221],[-3.09492,48.82651],[-3.094899,48.826695],[-3.095055,48.827004],[-3.095093,48.827279],[-3.095159,48.827443],[-3.09521,48.827765],[-3.095609,48.827739],[-3.095959,48.827825],[-3.09633,48.827888],[-3.096821,48.827914],[-3.097059,48.827965],[-3.097572,48.827965],[-3.097837,48.827915],[-3.098234,48.827892],[-3.099028,48.828407],[-3.099182,48.828445],[-3.099551,48.828636],[-3.100539,48.829185],[-3.100429,48.829352],[-3.100151,48.829527],[-3.099556,48.829733],[-3.099221,48.829765],[-3.098786,48.829851],[-3.098337,48.830039],[-3.098563,48.830125],[-3.098805,48.830119],[-3.098994,48.830188],[-3.099416,48.830286],[-3.09975,48.830453],[-3.100148,48.830617],[-3.100454,48.830778],[-3.100509,48.830865],[-3.100513,48.831066],[-3.100365,48.831114],[-3.099955,48.831025],[-3.099628,48.830874],[-3.099431,48.830838],[-3.099085,48.830959],[-3.098852,48.831182],[-3.09852,48.831283],[-3.09837,48.831439],[-3.097984,48.831708],[-3.097854,48.831764],[-3.097768,48.831886],[-3.097473,48.832094],[-3.097696,48.832291],[-3.097841,48.832318],[-3.098067,48.83254],[-3.098191,48.8328],[-3.098261,48.832857],[-3.098429,48.833276],[-3.098535,48.833384],[-3.098642,48.833764],[-3.098586,48.833932],[-3.098679,48.834061],[-3.098373,48.834344],[-3.098119,48.834388],[-3.097762,48.83458],[-3.09734,48.834748],[-3.097092,48.834759],[-3.096174,48.834987],[-3.095731,48.835061],[-3.095544,48.835151],[-3.095233,48.835127],[-3.094728,48.835213],[-3.094369,48.835334],[-3.093924,48.835416],[-3.093837,48.835528],[-3.09384,48.835655],[-3.093678,48.835974],[-3.093524,48.836035],[-3.093446,48.836222],[-3.093245,48.836446],[-3.092896,48.836461],[-3.092899,48.836661],[-3.093031,48.837015],[-3.093228,48.83721],[-3.093212,48.837486],[-3.093254,48.837645],[-3.093385,48.837778],[-3.093211,48.837841],[-3.092504,48.837723],[-3.092166,48.837716],[-3.091779,48.837749],[-3.091436,48.837856],[-3.091516,48.838094],[-3.091736,48.838391],[-3.091829,48.838665],[-3.091776,48.839039],[-3.091651,48.839477],[-3.09154,48.84],[-3.09175,48.840284],[-3.092072,48.840614],[-3.092273,48.840965],[-3.092304,48.841241],[-3.092277,48.841597],[-3.092076,48.841718],[-3.091809,48.841786],[-3.091255,48.8418],[-3.091015,48.841761],[-3.090506,48.841719],[-3.090133,48.841725],[-3.089257,48.841805],[-3.089156,48.841762],[-3.088354,48.841908],[-3.088157,48.841893],[-3.087669,48.841757],[-3.087763,48.842074],[-3.087732,48.842205],[-3.087876,48.842293],[-3.087943,48.842448],[-3.087894,48.842573],[-3.087992,48.842636],[-3.087727,48.842732],[-3.087558,48.843004],[-3.087504,48.843185],[-3.087503,48.843369],[-3.087668,48.84349],[-3.087495,48.843557],[-3.087287,48.843704],[-3.086929,48.843863],[-3.08682,48.843857],[-3.086552,48.843951],[-3.086099,48.844055],[-3.085853,48.84417],[-3.085705,48.844352],[-3.085678,48.844547],[-3.085358,48.844812],[-3.085149,48.844954],[-3.084807,48.844996],[-3.084679,48.845317],[-3.0847,48.845482],[-3.084623,48.84558],[-3.084637,48.846244],[-3.084276,48.846957],[-3.084267,48.847079],[-3.084124,48.847214],[-3.083834,48.847371],[-3.083754,48.847501],[-3.083773,48.847723],[-3.083612,48.847871],[-3.083699,48.848041],[-3.083916,48.848299],[-3.084223,48.848517],[-3.084514,48.848587],[-3.084517,48.848706],[-3.084736,48.848908],[-3.084923,48.849172],[-3.08503,48.849403],[-3.085127,48.849514],[-3.085527,48.849604],[-3.085624,48.849717],[-3.085831,48.849765],[-3.086127,48.849721],[-3.086555,48.849804],[-3.086814,48.849957],[-3.086944,48.850134],[-3.087012,48.850364],[-3.087025,48.850691],[-3.087092,48.850999],[-3.087124,48.851293],[-3.087203,48.851594],[-3.087284,48.851653],[-3.087675,48.851605],[-3.087766,48.851623],[-3.087825,48.851769],[-3.087872,48.852158],[-3.087969,48.852568],[-3.088099,48.852716],[-3.088239,48.852786],[-3.088532,48.852754],[-3.088604,48.852662],[-3.088549,48.852346],[-3.08862,48.852057],[-3.088821,48.851794],[-3.088984,48.851685],[-3.089429,48.851542],[-3.089735,48.851499],[-3.089954,48.851391],[-3.090177,48.851188],[-3.090302,48.850911],[-3.090587,48.850603],[-3.090744,48.850392],[-3.090967,48.850199],[-3.091064,48.850052],[-3.091122,48.849739],[-3.091111,48.849556],[-3.091162,48.849323],[-3.092037,48.849156],[-3.092674,48.848994],[-3.092822,48.848797],[-3.093118,48.848588],[-3.093337,48.848591],[-3.093595,48.848647],[-3.094063,48.848654],[-3.094235,48.848732],[-3.094413,48.848892],[-3.094491,48.849088],[-3.094412,48.849459],[-3.094473,48.849633],[-3.094663,48.849719],[-3.095483,48.849981],[-3.095879,48.850201],[-3.096094,48.850354],[-3.096323,48.85041],[-3.096492,48.850513],[-3.096723,48.851006],[-3.096641,48.851164],[-3.096391,48.851368],[-3.096093,48.851514],[-3.095676,48.851815],[-3.095338,48.852317],[-3.095209,48.852579],[-3.094966,48.852856],[-3.094715,48.853101],[-3.094589,48.853339],[-3.094429,48.853799],[-3.094128,48.854214],[-3.094023,48.854433],[-3.093964,48.855113],[-3.094047,48.855245],[-3.094431,48.855375],[-3.094769,48.855447],[-3.095174,48.855588],[-3.095345,48.855698],[-3.095604,48.856183],[-3.095643,48.856473],[-3.095761,48.856708],[-3.095992,48.856838],[-3.096734,48.857073],[-3.096862,48.857095],[-3.097446,48.857276],[-3.097813,48.857371],[-3.098106,48.857481],[-3.098518,48.857582],[-3.099179,48.857655],[-3.099445,48.857716],[-3.09958,48.857813],[-3.099723,48.858115],[-3.099871,48.858296],[-3.100123,48.858441],[-3.100586,48.858512],[-3.100808,48.858481],[-3.101248,48.858471],[-3.101626,48.858436],[-3.101892,48.858442],[-3.102348,48.858521],[-3.102942,48.858586],[-3.103432,48.858686],[-3.103637,48.858768],[-3.103889,48.858999],[-3.104074,48.85932],[-3.104436,48.859715],[-3.104956,48.859927],[-3.105225,48.859954],[-3.105439,48.860138],[-3.105578,48.86078],[-3.105901,48.861114],[-3.105921,48.86119],[-3.105872,48.861568],[-3.105626,48.861987],[-3.105315,48.86188]]},"properties":{"name":"Aufzeichnung am 30.08.2024 09:13:49","type":"trackHikingTourTrail","time":"2024-08-30T07:15:06.999Z"},"id":"MxMTQ"},
{"type":"Feature","geometry":{"type":"LineString","coordinates":[[-3.310995,48.833914],[-3.310873,48.834083],[-3.310483,48.834129],[-3.310423,48.834149],[-3.3103,48.834176],[-3.310268,48.834187],[-3.310211,48.834199],[-3.309941,48.834216],[-3.310163,48.834371],[-3.310254,48.834522],[-3.310067,48.834839],[-3.310094,48.83501],[-3.310009,48.835173],[-3.310015,48.835379],[-3.309858,48.835488],[-3.309682,48.835688],[-3.3091,48.83587],[-3.308897,48.835902],[-3.308566,48.836006],[-3.308363,48.836105],[-3.30793,48.836377],[-3.307706,48.836657],[-3.307521,48.836745],[-3.307516,48.836854],[-3.307645,48.836972],[-3.307915,48.837066],[-3.308391,48.837138],[-3.308645,48.837123],[-3.30888,48.837063],[-3.309487,48.83699],[-3.309915,48.836974],[-3.310234,48.836798],[-3.310413,48.836494],[-3.310451,48.836307],[-3.310583,48.836261],[-3.310864,48.836273],[-3.311521,48.836428],[-3.311945,48.836371],[-3.312058,48.836316],[-3.312672,48.836206],[-3.312886,48.836186],[-3.313376,48.836216],[-3.31375,48.83617],[-3.314619,48.836202],[-3.31475,48.836194],[-3.315762,48.836288],[-3.316588,48.836447],[-3.317006,48.836558],[-3.317512,48.836728],[-3.317651,48.836754],[-3.317898,48.836707],[-3.318188,48.836754],[-3.318391,48.836908],[-3.318385,48.837301],[-3.318472,48.837499],[-3.31864,48.837511],[-3.319122,48.837613],[-3.319685,48.837704],[-3.320224,48.837743],[-3.320754,48.837726],[-3.321134,48.837695],[-3.321718,48.83776],[-3.322059,48.837747],[-3.322299,48.837694],[-3.322439,48.837613],[-3.322666,48.837388],[-3.322889,48.837233],[-3.323101,48.837144],[-3.323293,48.837004],[-3.323728,48.836771],[-3.323945,48.836622],[-3.324177,48.836388],[-3.324735,48.835932],[-3.324909,48.835879],[-3.325098,48.835741],[-3.326174,48.835264],[-3.326792,48.835294],[-3.32689,48.835227],[-3.326908,48.835053],[-3.327072,48.834784],[-3.327236,48.834665],[-3.3279,48.834268],[-3.328506,48.83393],[-3.329038,48.833599],[-3.329066,48.83344],[-3.329784,48.83289],[-3.329976,48.832784],[-3.3302,48.832589],[-3.33033,48.832408],[-3.330365,48.832266],[-3.330519,48.832025],[-3.330779,48.83173],[-3.331096,48.831121],[-3.33142,48.830674],[-3.331815,48.830265],[-3.332735,48.829553],[-3.332839,48.829457],[-3.333267,48.829208],[-3.333451,48.829145],[-3.334053,48.828768],[-3.334367,48.828513],[-3.334313,48.828393],[-3.334686,48.828041],[-3.335022,48.82796],[-3.335242,48.827938],[-3.335765,48.827828],[-3.33594,48.827847],[-3.336698,48.827817],[-3.336824,48.827843],[-3.337345,48.827844],[-3.33816,48.82793],[-3.338989,48.827974],[-3.339294,48.828067],[-3.339494,48.828174],[-3.339623,48.828182],[-3.340107,48.82811],[-3.340347,48.828106],[-3.340813,48.828142],[-3.340997,48.828134],[-3.341318,48.828044],[-3.341696,48.82784],[-3.341954,48.827636],[-3.342465,48.827192],[-3.342572,48.827133],[-3.342801,48.826852],[-3.34365,48.826448],[-3.344124,48.826306],[-3.344531,48.826109],[-3.345074,48.825955],[-3.345348,48.825843],[-3.346151,48.825576],[-3.346155,48.825326],[-3.345906,48.825123],[-3.346098,48.824866],[-3.345853,48.824482],[-3.345811,48.82432],[-3.345983,48.824154],[-3.346217,48.824185],[-3.346396,48.82426],[-3.346759,48.824358],[-3.347269,48.824447],[-3.347684,48.824566],[-3.348475,48.82473],[-3.348926,48.824722],[-3.349176,48.82475],[-3.349364,48.824654],[-3.349745,48.824154],[-3.349814,48.823852],[-3.34993,48.823671],[-3.350074,48.823546],[-3.350251,48.823235],[-3.350269,48.823033],[-3.350425,48.822443],[-3.350426,48.821911],[-3.350539,48.821745],[-3.350602,48.821365],[-3.350665,48.82114],[-3.350836,48.820999],[-3.350761,48.820892],[-3.351021,48.820769],[-3.351324,48.820676],[-3.351627,48.82054],[-3.35304,48.820045],[-3.353796,48.819835],[-3.353964,48.819814],[-3.354787,48.819588],[-3.355155,48.81946],[-3.355659,48.819334],[-3.35587,48.8192],[-3.356021,48.819045],[-3.356124,48.818851],[-3.356164,48.818665],[-3.356058,48.818555],[-3.355785,48.818391],[-3.355714,48.81824],[-3.355784,48.818044],[-3.355972,48.817894],[-3.356353,48.817805],[-3.356712,48.817654],[-3.35708,48.817542],[-3.357579,48.81758],[-3.357764,48.817567],[-3.358034,48.81746],[-3.358144,48.81726],[-3.358349,48.817015],[-3.358364,48.816655],[-3.358569,48.81676],[-3.358517,48.816942],[-3.358753,48.817231],[-3.358984,48.817403],[-3.359688,48.817695],[-3.359941,48.817866],[-3.360074,48.818072],[-3.360106,48.8183],[-3.360064,48.818556],[-3.359922,48.818842],[-3.359752,48.818992],[-3.359484,48.819146],[-3.358971,48.819347],[-3.35847,48.819479],[-3.358424,48.819555],[-3.358845,48.820132],[-3.359153,48.82032],[-3.359563,48.820509],[-3.359685,48.820607],[-3.359896,48.820672],[-3.360562,48.82068],[-3.360778,48.820667],[-3.36164,48.820727],[-3.361926,48.820806],[-3.362294,48.821026],[-3.362875,48.821299],[-3.363076,48.821333],[-3.363292,48.82131],[-3.363648,48.821202],[-3.36405,48.821033],[-3.364212,48.820904],[-3.364172,48.820524],[-3.364265,48.820032],[-3.364461,48.81967],[-3.364792,48.81932],[-3.365007,48.819062],[-3.365208,48.818901],[-3.365832,48.818566],[-3.366057,48.818517],[-3.366752,48.818216],[-3.367066,48.818155],[-3.36725,48.818084],[-3.367652,48.818044],[-3.367786,48.818005],[-3.368587,48.817907],[-3.368969,48.817958],[-3.369711,48.817781],[-3.370145,48.81776],[-3.370773,48.817586],[-3.370789,48.81743],[-3.370603,48.817267],[-3.370409,48.817038],[-3.370511,48.816895],[-3.370705,48.816806],[-3.370927,48.816799],[-3.371489,48.816657],[-3.371711,48.816574],[-3.372362,48.816395],[-3.372742,48.816323],[-3.373056,48.816327],[-3.373435,48.816279],[-3.374241,48.816226],[-3.374927,48.816167],[-3.3759,48.816114],[-3.376298,48.816079],[-3.376581,48.816082],[-3.376905,48.816128],[-3.377221,48.816225],[-3.377587,48.816199],[-3.378056,48.81627],[-3.378196,48.816257],[-3.37857,48.816145],[-3.379516,48.816028],[-3.37997,48.815921],[-3.380319,48.815876],[-3.380773,48.815732],[-3.381098,48.815573],[-3.381268,48.815421],[-3.38188,48.815077],[-3.382306,48.814867],[-3.382843,48.814654],[-3.38309,48.814585],[-3.38335,48.814587],[-3.383624,48.814548],[-3.38377,48.814455]]},"properties":{"name":"Aussichtsreiche Wanderung auf Chemin des Douaniers, Brehec - Keriec, tracé principal von Port Blanc nach Port l'Épine über Trévou-Tréguignec am 3. September 2024","type":"trackHikingTourTrail","time":"2024-09-03T07:53:14.188Z"},"id":"AzOTM"},
{"type":"Feature","geometry":{"type":"LineString","coordinates":[[-3.105228,48.861866],[-3.105351,48.861958],[-3.105576,48.862036],[-3.105775,48.862061],[-3.105981,48.86214],[-3.106708,48.862261],[-3.107314,48.862413],[-3.107507,48.862549],[-3.107782,48.862877],[-3.107756,48.863059],[-3.107857,48.863641],[-3.107927,48.863933],[-3.10802,48.864145],[-3.108042,48.864312],[-3.107868,48.864812],[-3.107689,48.865096],[-3.107729,48.865341],[-3.107844,48.865415],[-3.108328,48.865423],[-3.108743,48.865373],[-3.109355,48.865491],[-3.109443,48.865463],[-3.109662,48.86554],[-3.109784,48.865674],[-3.109779,48.865933],[-3.109892,48.866022],[-3.110217,48.86615],[-3.110426,48.866163],[-3.110677,48.866342],[-3.110739,48.866493],[-3.1107,48.866645],[-3.110806,48.866759],[-3.111193,48.86679],[-3.111414,48.86689],[-3.111586,48.867059],[-3.111895,48.867015],[-3.112081,48.866946],[-3.11243,48.866752],[-3.112651,48.86668],[-3.113028,48.86669],[-3.113814,48.86687],[-3.114034,48.866732],[-3.114364,48.866444],[-3.114857,48.866241],[-3.115581,48.865909],[-3.11602,48.865769],[-3.116374,48.865589],[-3.116707,48.865497],[-3.116813,48.865352],[-3.116911,48.865404],[-3.117199,48.865377],[-3.117492,48.865313],[-3.117856,48.8653],[-3.118386,48.865423],[-3.118653,48.865594],[-3.118781,48.865633],[-3.119092,48.865637],[-3.119402,48.865495],[-3.119675,48.86541],[-3.119949,48.865217],[-3.120714,48.864761],[-3.121101,48.864623],[-3.121371,48.864566],[-3.12164,48.86444],[-3.12184,48.864295],[-3.121995,48.864254],[-3.122407,48.864014],[-3.122498,48.863757],[-3.122322,48.86351],[-3.122424,48.863347],[-3.122564,48.863259],[-3.122909,48.863115],[-3.123026,48.86316],[-3.123166,48.863514],[-3.123237,48.863882],[-3.123389,48.863954],[-3.123953,48.863974],[-3.124279,48.864104],[-3.124529,48.864173],[-3.124599,48.864279],[-3.124804,48.864442],[-3.124807,48.864534],[-3.125123,48.864613],[-3.12556,48.864573],[-3.126002,48.864708],[-3.126325,48.864745],[-3.126737,48.864747],[-3.127216,48.864649],[-3.127578,48.864645],[-3.128125,48.86449],[-3.128554,48.86433],[-3.128843,48.864273],[-3.129557,48.86428],[-3.129838,48.864163],[-3.129926,48.863851],[-3.130039,48.863712],[-3.130341,48.863506],[-3.13074,48.86329],[-3.131303,48.863046],[-3.131461,48.862803],[-3.131764,48.862593],[-3.13208,48.862318],[-3.132321,48.862056],[-3.132461,48.861752],[-3.132434,48.861617],[-3.132338,48.861563],[-3.132037,48.861535],[-3.131672,48.861571],[-3.131645,48.861408],[-3.131465,48.861273],[-3.131226,48.860785],[-3.131204,48.860546],[-3.131323,48.860467],[-3.131529,48.860075],[-3.131515,48.859867],[-3.131655,48.859715],[-3.141894,48.857667],[-3.14207,48.85761],[-3.142307,48.857472],[-3.14289,48.856978],[-3.143739,48.856427],[-3.143849,48.856317],[-3.144284,48.856052],[-3.144386,48.855768],[-3.144391,48.855656],[-3.144303,48.85544],[-3.144292,48.855262],[-3.144513,48.854885],[-3.144717,48.854769],[-3.144941,48.854558],[-3.145383,48.854445],[-3.145835,48.854204],[-3.146668,48.853874],[-3.146898,48.85375],[-3.147248,48.853689],[-3.148301,48.853403],[-3.148843,48.853219],[-3.14927,48.853147],[-3.149488,48.853139],[-3.150081,48.853061],[-3.150979,48.852892],[-3.151144,48.852899],[-3.151654,48.852734],[-3.152046,48.852571],[-3.152494,48.852479],[-3.152707,48.852405],[-3.15314,48.852332],[-3.154066,48.852082],[-3.15453,48.852049],[-3.1549,48.851959],[-3.155257,48.851931],[-3.155828,48.851822],[-3.156273,48.851867],[-3.156718,48.851791],[-3.157847,48.851636],[-3.158434,48.851631],[-3.158697,48.851593],[-3.159033,48.851614],[-3.160003,48.851805],[-3.160185,48.851869],[-3.160837,48.851939],[-3.160988,48.852059],[-3.16134,48.852228],[-3.161675,48.852352],[-3.161761,48.852446],[-3.161691,48.852522],[-3.161796,48.852657],[-3.161949,48.853029],[-3.161921,48.853272],[-3.162136,48.853302],[-3.162409,48.85316],[-3.162897,48.853076],[-3.163053,48.85311],[-3.163284,48.853086],[-3.16356,48.853146],[-3.163881,48.85335],[-3.164852,48.853525],[-3.165601,48.853455],[-3.165948,48.853456],[-3.166334,48.853368],[-3.166462,48.853289],[-3.166545,48.853146],[-3.166654,48.853097],[-3.167052,48.853125],[-3.167474,48.853046],[-3.167764,48.85277],[-3.167869,48.852719],[-3.168076,48.852422],[-3.168118,48.852308],[-3.167959,48.852126],[-3.167959,48.851921],[-3.168013,48.85183],[-3.168022,48.851632],[-3.168256,48.851368],[-3.168537,48.850942],[-3.16873,48.850793],[-3.168679,48.850614],[-3.168786,48.850368],[-3.168905,48.850288],[-3.169173,48.850197],[-3.169697,48.849942],[-3.169965,48.849766],[-3.17022,48.849689],[-3.170393,48.849591],[-3.170507,48.849434],[-3.170431,48.849095],[-3.170505,48.848832],[-3.170617,48.848565],[-3.170773,48.84808],[-3.170802,48.847903],[-3.171055,48.847575],[-3.171097,48.847293],[-3.171052,48.847123],[-3.170827,48.846885],[-3.17071,48.84661],[-3.170606,48.846499],[-3.170638,48.846387],[-3.171031,48.84627],[-3.171155,48.846079],[-3.171439,48.84594],[-3.171608,48.845717],[-3.171946,48.845107],[-3.171901,48.84487],[-3.172028,48.844464],[-3.172008,48.844334],[-3.172055,48.844019],[-3.172192,48.843899],[-3.17249,48.843724],[-3.172667,48.843513],[-3.172622,48.843385],[-3.172952,48.842848],[-3.173125,48.842752],[-3.17326,48.842608],[-3.173475,48.842098],[-3.173289,48.84182],[-3.173528,48.841784],[-3.173834,48.84182],[-3.174136,48.841803],[-3.174372,48.841823],[-3.174986,48.841792],[-3.17533,48.841828],[-3.175741,48.841826],[-3.176086,48.841736],[-3.176425,48.841323],[-3.176627,48.841233],[-3.177226,48.841097],[-3.178043,48.841047],[-3.178446,48.841071],[-3.178658,48.841117],[-3.178993,48.841126],[-3.179266,48.841069],[-3.179672,48.841061],[-3.179764,48.84112],[-3.180046,48.841092],[-3.180237,48.841118],[-3.180501,48.841087],[-3.180745,48.841109],[-3.181266,48.841279],[-3.181323,48.84126],[-3.18156,48.840895],[-3.181713,48.840617],[-3.182193,48.84061],[-3.182761,48.84056],[-3.183405,48.84058],[-3.183669,48.840714],[-3.183892,48.840889],[-3.183764,48.841067],[-3.18386,48.841162],[-3.18401,48.841191],[-3.184636,48.841036],[-3.184858,48.840886],[-3.184907,48.840753],[-3.184812,48.840501],[-3.184673,48.840361],[-3.184783,48.840228],[-3.185017,48.840135],[-3.18514,48.840174],[-3.185576,48.840007],[-3.185861,48.839744],[-3.186436,48.839471],[-3.186785,48.839206],[-3.187353,48.838942],[-3.187539,48.83882],[-3.187822,48.838721],[-3.188018,48.838595],[-3.18837,48.838274],[-3.188615,48.838119],[-3.189008,48.83799],[-3.18919,48.837961],[-3.189323,48.837809],[-3.189109,48.837701],[-3.188587,48.837495],[-3.18798,48.837149],[-3.187172,48.836769],[-3.187039,48.836748],[-3.186704,48.836615],[-3.186622,48.836524],[-3.18676,48.836326],[-3.186824,48.8361],[-3.186909,48.836017],[-3.186848,48.83583],[-3.187071,48.835595],[-3.187285,48.835479],[-3.187763,48.834999],[-3.187928,48.834792],[-3.188252,48.834849],[-3.18855,48.834707],[-3.188632,48.834413],[-3.188783,48.834183],[-3.188815,48.833998],[-3.188788,48.833744],[-3.189003,48.833522],[-3.189204,48.833208],[-3.18937,48.832873],[-3.189535,48.832716],[-3.189599,48.832536],[-3.189879,48.832235],[-3.189834,48.831954],[-3.190109,48.831875],[-3.190399,48.831289],[-3.190534,48.831159],[-3.191019,48.830909],[-3.191309,48.830788],[-3.191584,48.83051],[-3.191853,48.83],[-3.191874,48.829656],[-3.191992,48.829374],[-3.192123,48.829282],[-3.192277,48.829029],[-3.192425,48.828877],[-3.192832,48.828558],[-3.193117,48.828381],[-3.193397,48.828076],[-3.193486,48.82774],[-3.193341,48.827369],[-3.193416,48.827317],[-3.193836,48.827385],[-3.193959,48.82737],[-3.194535,48.827208],[-3.195127,48.826958],[-3.195773,48.826722],[-3.19642,48.826578],[-3.196559,48.826447],[-3.196817,48.825912],[-3.19686,48.825722],[-3.196837,48.825431],[-3.196678,48.824884],[-3.196668,48.824477],[-3.196553,48.824076],[-3.196546,48.823675],[-3.196588,48.823343],[-3.196651,48.823162],[-3.196681,48.822894],[-3.196774,48.822582],[-3.19685,48.822109],[-3.196801,48.821804],[-3.196586,48.821465]]},"properties":{"name":"Lange Wanderung auf Chemin des Douaniers, Brehec - Keriec, tracé principal von Basile nach Crec'h Arhant über Goas Lestry, Kermagen und Brestan am 31. August 2024","type":"trackHikingTourTrail","time":"2024-08-31T07:33:27.742Z"},"id":"c1NTM"},
{"type":"Feature","geometry":{"type":"LineString","coordinates":[[-3.062914,48.816959],[-3.062893,48.817028],[-3.063064,48.817141],[-3.063206,48.817412],[-3.063202,48.817767],[-3.063097,48.818118],[-3.06306,48.818622],[-3.063019,48.818761],[-3.063074,48.818905],[-3.063009,48.818992],[-3.063066,48.81927],[-3.063009,48.81999],[-3.063374,48.820359],[-3.063695,48.821573],[-3.064191,48.821701],[-3.064278,48.821956],[-3.064563,48.822004],[-3.064769,48.821994],[-3.06523,48.822021],[-3.065765,48.8221],[-3.065985,48.822065],[-3.066048,48.821638],[-3.06627,48.821626],[-3.066398,48.82153],[-3.066785,48.821349],[-3.066891,48.821267],[-3.067187,48.821232],[-3.067803,48.821376],[-3.06808,48.821271],[-3.068218,48.821287],[-3.06877,48.821089],[-3.069044,48.821073],[-3.069306,48.821125],[-3.06955,48.820976],[-3.06972,48.82097],[-3.069886,48.820788],[-3.070189,48.820699],[-3.070356,48.82069],[-3.071152,48.820377],[-3.070932,48.820164],[-3.070908,48.82006],[-3.070986,48.819922],[-3.071245,48.819851],[-3.071718,48.819981],[-3.071848,48.819994],[-3.072243,48.819936],[-3.072409,48.820026],[-3.072659,48.819937],[-3.072595,48.819841],[-3.072824,48.819816],[-3.073235,48.819687],[-3.073146,48.81944],[-3.073288,48.819117],[-3.07359,48.819003],[-3.073818,48.818804],[-3.073902,48.818535],[-3.074158,48.818328],[-3.074088,48.818258],[-3.073864,48.818209],[-3.073723,48.818125],[-3.07396,48.817933],[-3.074149,48.817821],[-3.074347,48.817757],[-3.074531,48.817778],[-3.074962,48.817729],[-3.075084,48.817664],[-3.075183,48.817473],[-3.075485,48.817123],[-3.075549,48.816896],[-3.075764,48.816696],[-3.076238,48.816428],[-3.076492,48.816458],[-3.076695,48.816403],[-3.076754,48.816327],[-3.07717,48.816207],[-3.077465,48.81589],[-3.077557,48.815876],[-3.078869,48.815345],[-3.079129,48.815223],[-3.079296,48.81524],[-3.079516,48.815156],[-3.079576,48.814889],[-3.079484,48.814818],[-3.079635,48.814546],[-3.079552,48.814415],[-3.079603,48.814158],[-3.079771,48.813949],[-3.080121,48.813742],[-3.080118,48.813657],[-3.080554,48.813363],[-3.080827,48.813341],[-3.08123,48.813189],[-3.081473,48.813127],[-3.082229,48.813267],[-3.082573,48.813131],[-3.082787,48.812891],[-3.083206,48.812708],[-3.083306,48.812561],[-3.083323,48.812414],[-3.083279,48.812092],[-3.083623,48.811659],[-3.083738,48.811625],[-3.084264,48.811329],[-3.084369,48.81112],[-3.084633,48.810896],[-3.084662,48.810722],[-3.08514,48.810145],[-3.085106,48.809991],[-3.085209,48.809765],[-3.085329,48.809714],[-3.085667,48.809394],[-3.08571,48.809281],[-3.085577,48.808774],[-3.085766,48.808432],[-3.086029,48.808084],[-3.086184,48.807776],[-3.086169,48.807596],[-3.086248,48.807459],[-3.086573,48.807205],[-3.086859,48.806915],[-3.087369,48.806519],[-3.087461,48.806385],[-3.087872,48.805964],[-3.08809,48.805394],[-3.088109,48.80515],[-3.088067,48.80508],[-3.088137,48.80489],[-3.088025,48.804723],[-3.087893,48.80463],[-3.087832,48.804409],[-3.088097,48.804174],[-3.088119,48.803881],[-3.087842,48.803451],[-3.087565,48.803077],[-3.087433,48.80298],[-3.086949,48.802843],[-3.086527,48.802774],[-3.08654,48.802575],[-3.086488,48.802499],[-3.086727,48.802352],[-3.087125,48.801989],[-3.087307,48.80197],[-3.087843,48.801403],[-3.08798,48.801281],[-3.088202,48.800986],[-3.08828,48.800801],[-3.088501,48.800556],[-3.088668,48.800463],[-3.089094,48.800026],[-3.089267,48.799812],[-3.089255,48.799688],[-3.089375,48.798816],[-3.089588,48.798468],[-3.089621,48.798336],[-3.089782,48.798068],[-3.089857,48.79801],[-3.090234,48.797895],[-3.090494,48.797878],[-3.09108,48.797636],[-3.091374,48.797383],[-3.091685,48.797194],[-3.091796,48.796954],[-3.091799,48.796825],[-3.092011,48.796645],[-3.092196,48.796596],[-3.092416,48.79643],[-3.092776,48.796337],[-3.093075,48.796107],[-3.093133,48.795896],[-3.093657,48.795506],[-3.09368,48.795404],[-3.093598,48.79519],[-3.093975,48.794991],[-3.094089,48.794768],[-3.094044,48.794588],[-3.0938,48.794445],[-3.093722,48.794323],[-3.093728,48.794123],[-3.09348,48.793783],[-3.093299,48.793658],[-3.092806,48.79351],[-3.092729,48.793295],[-3.092596,48.793199],[-3.092676,48.793078],[-3.093302,48.792981],[-3.093286,48.792821],[-3.093093,48.792598],[-3.093107,48.792427],[-3.093045,48.792275],[-3.092679,48.791823],[-3.092655,48.791635],[-3.092546,48.791491],[-3.09256,48.791379],[-3.092776,48.791077],[-3.09283,48.79075],[-3.09265,48.790396],[-3.092387,48.790092],[-3.092313,48.789891],[-3.0919,48.789411],[-3.091868,48.789283],[-3.091615,48.789132],[-3.0911,48.789011],[-3.090971,48.788794],[-3.090845,48.788305],[-3.091257,48.788017],[-3.091582,48.787911],[-3.091674,48.787835],[-3.091983,48.787789],[-3.09226,48.787697],[-3.092412,48.787588],[-3.09244,48.78736],[-3.092683,48.787192],[-3.092874,48.787154],[-3.092886,48.787071],[-3.093232,48.786716],[-3.093304,48.786542],[-3.093544,48.786219],[-3.093571,48.786113],[-3.093483,48.785916],[-3.093428,48.785653],[-3.093275,48.785414],[-3.093256,48.785253],[-3.093349,48.784976],[-3.093624,48.784731],[-3.093975,48.784493],[-3.094114,48.784322],[-3.094165,48.784163],[-3.0941,48.783975],[-3.093826,48.783872],[-3.093629,48.783724],[-3.093575,48.783633],[-3.093706,48.783397],[-3.093612,48.783215],[-3.0937,48.783085],[-3.093934,48.78298],[-3.094033,48.782866],[-3.094087,48.782689],[-3.094049,48.782374],[-3.094279,48.78214],[-3.094364,48.781709],[-3.09432,48.781525],[-3.094557,48.781061],[-3.094718,48.780925],[-3.094929,48.780837],[-3.094963,48.780741],[-3.09469,48.780501],[-3.094622,48.780293],[-3.094527,48.780277],[-3.094398,48.780052],[-3.094283,48.779931],[-3.093986,48.779818],[-3.093796,48.779663],[-3.093522,48.779622],[-3.093394,48.779506],[-3.093461,48.779411],[-3.093801,48.779466],[-3.094199,48.779438],[-3.094631,48.779164],[-3.09465,48.778927],[-3.094574,48.778483],[-3.097142,48.778477],[-3.097562,48.778535],[-3.097899,48.778625],[-3.098141,48.778657],[-3.098491,48.778761],[-3.098963,48.77886],[-3.099186,48.778882],[-3.099656,48.779005],[-3.099919,48.779112],[-3.10019,48.779308],[-3.100549,48.7794],[-3.100914,48.779544],[-3.101404,48.779622],[-3.101747,48.779582],[-3.102032,48.779624],[-3.102504,48.779609],[-3.102699,48.779663],[-3.103065,48.779635],[-3.103203,48.779552],[-3.10332,48.779579],[-3.103597,48.779466],[-3.104059,48.779636],[-3.104392,48.779677],[-3.104965,48.779985],[-3.105298,48.780109],[-3.105846,48.780505],[-3.10639,48.780754],[-3.106525,48.780952],[-3.106842,48.781101],[-3.107154,48.781289],[-3.107824,48.781596],[-3.107966,48.781721],[-3.108136,48.781795],[-3.108043,48.781954],[-3.107971,48.782262],[-3.107855,48.78233],[-3.107698,48.782542],[-3.107469,48.782706],[-3.107217,48.782829],[-3.107158,48.782936],[-3.106935,48.783077],[-3.106665,48.783298],[-3.10653,48.783512],[-3.106413,48.783582],[-3.106182,48.783852],[-3.106306,48.784365],[-3.106501,48.784574],[-3.106431,48.784888],[-3.106518,48.78504],[-3.106546,48.785263],[-3.10671,48.785397],[-3.106838,48.785585],[-3.10688,48.785598],[-3.106901,48.785616],[-3.10692,48.785634],[-3.106959,48.785656],[-3.10745,48.785568],[-3.107562,48.785523],[-3.107526,48.785388],[-3.105962,48.786002],[-3.105881,48.786186],[-3.105775,48.786265],[-3.105341,48.786297],[-3.105118,48.786376],[-3.104923,48.78636],[-3.10434,48.786536],[-3.103922,48.786686],[-3.103797,48.786891],[-3.103992,48.786966],[-3.104046,48.78704],[-3.103567,48.787247],[-3.103338,48.787213],[-3.103057,48.787266],[-3.102829,48.787274],[-3.102723,48.787385],[-3.10283,48.787668],[-3.103005,48.787936],[-3.103004,48.788025],[-3.102835,48.788271],[-3.102455,48.788414],[-3.101928,48.788663],[-3.10172,48.788694],[-3.101568,48.788783],[-3.101503,48.788919],[-3.101209,48.78912],[-3.100962,48.789369],[-3.10053,48.789886],[-3.100368,48.790125],[-3.100147,48.790362],[-3.10023,48.790569],[-3.10044,48.790787],[-3.100545,48.790944],[-3.10068,48.791323],[-3.100589,48.791317],[-3.100889,48.79208],[-3.101138,48.792177],[-3.101402,48.792362],[-3.101093,48.792438],[-3.101043,48.792366],[-3.101027,48.792368]]},"properties":{"name":"Lange Wanderung auf Chemin des Douaniers, Brehec - Keriec, tracé principal von Loguivy de la Mer nach Kermenguy am 29. August 2024","type":"trackHikingTourTrail","time":"2024-08-29T07:20:47.861Z"},"id":"M0Mjc"},
{"type":"Feature","geometry":{"type":"LineString","coordinates":[[-3.384058,48.814321],[-3.384228,48.814367],[-3.384631,48.814327],[-3.384994,48.814462],[-3.385289,48.814508],[-3.38589,48.814484],[-3.386296,48.81461],[-3.386773,48.815],[-3.386877,48.81512],[-3.387044,48.815149],[-3.387567,48.81509],[-3.388352,48.815146],[-3.388528,48.815194],[-3.388656,48.814996],[-3.388789,48.814648],[-3.389151,48.814338],[-3.389365,48.814056],[-3.389489,48.813771],[-3.389472,48.813602],[-3.389384,48.813459],[-3.389382,48.813297],[-3.389297,48.813221],[-3.38909,48.813251],[-3.388838,48.813367],[-3.388713,48.813226],[-3.388802,48.813155],[-3.388991,48.812886],[-3.388955,48.812836],[-3.387581,48.812771],[-3.387131,48.81262],[-3.386628,48.812318],[-3.386451,48.811935],[-3.386398,48.811493],[-3.386434,48.811088],[-3.386482,48.81103],[-3.386487,48.810684],[-3.386617,48.810134],[-3.386736,48.810063],[-3.386969,48.809807],[-3.387101,48.809729],[-3.387253,48.809529],[-3.387531,48.809076],[-3.388083,48.808636],[-3.388321,48.808114],[-3.388221,48.807784],[-3.388101,48.807492],[-3.387985,48.807291],[-3.387994,48.806878],[-3.387893,48.806732],[-3.387674,48.806512],[-3.387525,48.806462],[-3.387355,48.806211],[-3.387314,48.805996],[-3.387079,48.805653],[-3.386937,48.805523],[-3.38673,48.805103],[-3.386857,48.804587],[-3.386652,48.804216],[-3.386577,48.803804],[-3.387135,48.803797],[-3.387672,48.803842],[-3.387813,48.803905],[-3.388172,48.803783],[-3.388219,48.80357],[-3.388126,48.803212],[-3.387896,48.802825],[-3.387943,48.802561],[-3.388028,48.802436],[-3.388429,48.802213],[-3.38883,48.801908],[-3.389362,48.801659],[-3.389553,48.801696],[-3.389486,48.80179],[-3.389685,48.801935],[-3.389811,48.802285],[-3.389981,48.802603],[-3.39012,48.802792],[-3.390235,48.802821],[-3.390644,48.802649],[-3.39079,48.802547],[-3.391126,48.802401],[-3.391093,48.802338],[-3.391684,48.80211],[-3.391976,48.802043],[-3.392606,48.801822],[-3.392811,48.80177],[-3.393456,48.801506],[-3.393242,48.801228],[-3.393768,48.801209],[-3.394272,48.801055],[-3.394546,48.800938],[-3.394912,48.80084],[-3.39544,48.800732],[-3.395812,48.800619],[-3.395981,48.800752],[-3.396134,48.800947],[-3.39657,48.800784],[-3.39696,48.800746],[-3.397356,48.800652],[-3.397437,48.800601],[-3.397333,48.800262],[-3.397373,48.800005],[-3.39764,48.79986],[-3.398578,48.799777],[-3.398746,48.799806],[-3.399101,48.799763],[-3.399906,48.799807],[-3.400325,48.799811],[-3.400556,48.799685],[-3.400759,48.799652],[-3.401174,48.799481],[-3.401541,48.799287],[-3.401744,48.799223],[-3.402494,48.79887],[-3.402674,48.798828],[-3.40301,48.798684],[-3.403163,48.798673],[-3.403906,48.798521],[-3.404354,48.798521],[-3.404704,48.798476],[-3.405054,48.798464],[-3.405313,48.798507],[-3.405382,48.798461],[-3.4058,48.798363],[-3.405882,48.798303],[-3.406109,48.798008],[-3.406253,48.797775],[-3.406327,48.797734],[-3.40686,48.797242],[-3.406869,48.796434],[-3.406925,48.796289],[-3.406809,48.796203]]},"properties":{"name":"Nachmittagswanderung auf Chemin des Douaniers, Keriec - Morlaix von Port l'Épine nach Louannec über Keravel Bihan, Nantouar und Kerlucun am 4. September 2024","type":"trackHikingTourTrail","time":"2024-09-04T07:51:40.958Z"},"id":"c5MTU"},
{"type":"Feature","geometry":{"type":"LineString","coordinates":[[-3.194057,48.821896],[-3.194046,48.821709],[-3.194241,48.821466],[-3.194571,48.821329],[-3.194771,48.821317],[-3.19512,48.821396],[-3.195531,48.8216],[-3.195884,48.821649],[-3.196433,48.821463],[-3.196501,48.821309],[-3.196129,48.820811],[-3.195841,48.82028],[-3.19585,48.820152],[-3.196086,48.820045],[-3.196351,48.820033],[-3.196752,48.819945],[-3.197176,48.819789],[-3.197243,48.819608],[-3.197196,48.819421],[-3.197037,48.819191],[-3.196987,48.819039],[-3.196713,48.818667],[-3.196388,48.818363],[-3.196197,48.818095],[-3.196284,48.818048],[-3.196504,48.818207],[-3.196939,48.817952],[-3.196902,48.817722],[-3.196773,48.817202],[-3.196965,48.816663],[-3.196985,48.816366],[-3.196927,48.816065],[-3.196963,48.815949],[-3.196922,48.815637],[-3.196806,48.815395],[-3.196796,48.815204],[-3.196708,48.815101],[-3.196601,48.814679],[-3.19663,48.814581],[-3.196873,48.814348],[-3.197059,48.81425],[-3.197109,48.814158],[-3.197023,48.813748],[-3.197023,48.813496],[-3.196704,48.813235],[-3.196584,48.81305],[-3.196622,48.812976],[-3.197143,48.812886],[-3.19751,48.812789],[-3.198119,48.812697],[-3.19842,48.81261],[-3.198622,48.812493],[-3.198673,48.811998],[-3.198869,48.81159],[-3.198995,48.81151],[-3.19904,48.811341],[-3.198964,48.811106],[-3.198973,48.810964],[-3.199079,48.810762],[-3.199217,48.810637],[-3.199451,48.810303],[-3.199959,48.810166],[-3.200139,48.810038],[-3.200357,48.80969],[-3.200689,48.80952],[-3.201137,48.809083],[-3.201502,48.808833],[-3.201857,48.808394],[-3.20189,48.808258],[-3.20215,48.807941],[-3.202119,48.807787],[-3.201925,48.80751],[-3.201627,48.807199],[-3.201096,48.806887],[-3.201017,48.806792],[-3.200636,48.80653],[-3.200143,48.806275],[-3.199877,48.806207],[-3.199162,48.806102],[-3.199047,48.806057],[-3.198958,48.805866],[-3.198995,48.805693],[-3.198947,48.805585],[-3.198665,48.805427],[-3.198456,48.805361],[-3.198391,48.805231],[-3.198447,48.805006],[-3.198368,48.804857],[-3.197662,48.804309],[-3.197446,48.804163],[-3.197201,48.803883],[-3.197143,48.803732],[-3.197224,48.803361],[-3.197499,48.802589],[-3.197544,48.802178],[-3.197647,48.801853],[-3.197592,48.801324],[-3.197488,48.801039],[-3.197501,48.800893],[-3.197592,48.800818],[-3.198082,48.800671],[-3.198709,48.800553],[-3.199145,48.800395],[-3.199462,48.800314],[-3.199675,48.800293],[-3.200226,48.800168],[-3.200604,48.800145],[-3.200706,48.800227],[-3.201035,48.800885],[-3.201105,48.801124],[-3.201323,48.801112],[-3.201721,48.801007],[-3.201926,48.800992],[-3.202502,48.800868],[-3.203244,48.800762],[-3.203782,48.800637],[-3.204084,48.800417],[-3.204468,48.800007],[-3.204572,48.799754],[-3.204902,48.799427],[-3.205381,48.799184],[-3.205571,48.799138],[-3.206088,48.799096],[-3.206492,48.798911],[-3.20702,48.798764],[-3.207515,48.798656],[-3.20827,48.798404],[-3.208604,48.798261],[-3.209076,48.798128],[-3.20955,48.797969],[-3.21013,48.797889],[-3.210434,48.797792],[-3.210921,48.797444],[-3.211234,48.797314],[-3.211336,48.797234],[-3.211381,48.797095],[-3.211884,48.79659],[-3.212086,48.796327],[-3.212285,48.795972],[-3.212985,48.795716],[-3.213221,48.795665],[-3.213492,48.795563],[-3.213665,48.795541],[-3.214439,48.795328],[-3.214877,48.795128],[-3.21511,48.794875],[-3.215546,48.794464],[-3.216077,48.794021],[-3.216302,48.793902],[-3.216421,48.793788],[-3.216849,48.793564],[-3.217127,48.793467],[-3.217507,48.79329],[-3.218402,48.792937],[-3.218769,48.792777],[-3.218964,48.792638],[-3.219029,48.792535],[-3.21941,48.792239],[-3.218894,48.792205],[-3.218598,48.792287],[-3.217726,48.792261],[-3.217546,48.792273],[-3.217221,48.792222],[-3.216719,48.792247],[-3.216043,48.79213],[-3.215775,48.7921],[-3.215533,48.79203],[-3.215283,48.792009],[-3.21522,48.79205],[-3.214973,48.791935],[-3.21436,48.791784],[-3.21402,48.791662],[-3.213683,48.791486],[-3.213307,48.791333],[-3.212696,48.791174],[-3.212422,48.790867],[-3.212224,48.790513],[-3.212178,48.79022],[-3.212087,48.790011],[-3.212093,48.789904],[-3.212281,48.789796],[-3.212633,48.789692],[-3.212739,48.789616],[-3.21269,48.789328],[-3.212854,48.789153],[-3.213057,48.788854],[-3.213127,48.788633],[-3.213154,48.788314],[-3.21312,48.788115],[-3.213182,48.787896],[-3.213187,48.787671],[-3.212994,48.787311],[-3.212683,48.786896],[-3.2126,48.786664],[-3.212443,48.78644],[-3.213109,48.786072],[-3.214147,48.785635],[-3.214443,48.785485],[-3.214584,48.785454],[-3.21517,48.785197],[-3.215389,48.785129],[-3.216007,48.784795],[-3.216529,48.784667],[-3.217102,48.784711],[-3.217546,48.784796],[-3.218096,48.784852],[-3.218816,48.784974],[-3.219081,48.784877],[-3.219098,48.784635],[-3.219271,48.784196],[-3.219217,48.783983],[-3.21904,48.78382],[-3.219127,48.78375],[-3.219669,48.783879],[-3.219888,48.783982],[-3.22003,48.783998],[-3.220528,48.784142],[-3.220894,48.784309],[-3.221404,48.78443],[-3.221788,48.784594],[-3.221843,48.784686],[-3.222183,48.784921],[-3.222436,48.785232],[-3.22269,48.785591],[-3.222977,48.785852],[-3.223042,48.785972],[-3.223501,48.786454],[-3.22359,48.786622],[-3.22383,48.786829],[-3.223913,48.787033],[-3.224179,48.787314],[-3.224277,48.787485],[-3.224563,48.787801],[-3.224673,48.78798],[-3.224934,48.788258],[-3.225307,48.788601],[-3.225714,48.788868],[-3.225996,48.78913],[-3.226255,48.789228],[-3.226464,48.789263],[-3.226696,48.789394],[-3.227104,48.789712],[-3.22731,48.789782],[-3.227494,48.789918],[-3.227654,48.790115],[-3.227773,48.790182],[-3.227911,48.790356],[-3.228254,48.790599],[-3.228453,48.790711],[-3.228764,48.790954],[-3.229081,48.791083],[-3.229582,48.791073],[-3.22981,48.791001],[-3.230235,48.790792],[-3.230406,48.790655],[-3.23047,48.790465],[-3.230355,48.790315],[-3.230508,48.79019],[-3.230566,48.790022],[-3.230786,48.789725],[-3.23077,48.789599],[-3.230905,48.789466],[-3.23087,48.789357],[-3.230961,48.78926],[-3.231011,48.789053],[-3.230737,48.788799],[-3.23115,48.788915],[-3.231151,48.789066],[-3.2309,48.78953],[-3.230905,48.789671],[-3.230703,48.789933],[-3.230771,48.789997],[-3.230618,48.790284],[-3.230712,48.790388],[-3.230822,48.790168],[-3.231324,48.789838],[-3.231649,48.789735],[-3.231948,48.789535],[-3.232236,48.789399],[-3.232579,48.789305],[-3.232742,48.789212],[-3.233073,48.789129],[-3.233143,48.789075],[-3.233506,48.788948],[-3.233811,48.788788],[-3.234254,48.788712],[-3.234932,48.788513],[-3.235634,48.788556],[-3.236032,48.788499],[-3.236283,48.788552],[-3.236472,48.788545],[-3.236867,48.788693],[-3.236982,48.78881],[-3.237187,48.788867],[-3.237396,48.789291],[-3.237438,48.789614],[-3.237275,48.789792],[-3.237117,48.789786],[-3.236591,48.789699],[-3.236209,48.789607],[-3.236096,48.789649],[-3.236004,48.789854],[-3.236039,48.790063],[-3.235887,48.79037],[-3.235848,48.790525],[-3.23588,48.790829],[-3.236031,48.790958],[-3.23618,48.791174],[-3.236287,48.791222],[-3.236911,48.791668],[-3.237207,48.791895],[-3.23727,48.791978],[-3.237493,48.792083],[-3.237765,48.792004],[-3.237764,48.791846],[-3.237831,48.79164],[-3.237998,48.791462],[-3.238193,48.791384],[-3.238454,48.791205]]},"properties":{"name":"Wanderung auf Chemin des Douaniers, Brehec - Keriec, tracé principal von Crec'h Arhant nach Saint-François über Kervoern, Clos Tronan und Traou Meur am 7. September 2024","type":"hikingTourTrail"},"id":"ExNTE"},
{"type":"Feature","geometry":{"type":"LineString","coordinates":[[-3.411109,48.794389],[-3.411347,48.794056],[-3.411604,48.793524],[-3.411775,48.793417],[-3.41171,48.793322],[-3.411777,48.793083],[-3.411934,48.792671],[-3.411837,48.792556],[-3.411918,48.792389],[-3.411955,48.792064],[-3.412103,48.791616],[-3.412117,48.791429],[-3.412234,48.791353],[-3.412238,48.791136],[-3.412346,48.790765],[-3.412526,48.790545],[-3.412845,48.790338],[-3.413336,48.7901],[-3.413653,48.789828],[-3.413944,48.789515],[-3.413966,48.789388],[-3.41422,48.789227],[-3.414573,48.789045],[-3.414773,48.788756],[-3.414964,48.788641],[-3.415271,48.788375],[-3.415894,48.787884],[-3.416615,48.787678],[-3.41694,48.787532],[-3.417534,48.787312],[-3.417678,48.787227],[-3.417789,48.786993],[-3.417746,48.786752],[-3.417607,48.786424],[-3.417508,48.786099],[-3.417525,48.785847],[-3.417658,48.785581],[-3.417947,48.785386],[-3.418221,48.785099],[-3.418291,48.784957],[-3.418281,48.784824],[-3.418369,48.784545],[-3.418505,48.784341],[-3.418655,48.783993],[-3.41897,48.78387],[-3.419143,48.783871],[-3.419507,48.783977],[-3.41979,48.784158],[-3.420146,48.784273],[-3.420245,48.78438],[-3.420618,48.78464],[-3.420848,48.784584],[-3.4211,48.784448],[-3.421508,48.784303],[-3.421349,48.783976],[-3.42139,48.783728],[-3.421367,48.78336],[-3.421298,48.783012],[-3.421186,48.782793],[-3.421085,48.782505],[-3.421144,48.782355],[-3.421272,48.782292],[-3.42161,48.782271],[-3.422007,48.782169],[-3.422293,48.782121],[-3.423314,48.782119],[-3.423627,48.782061],[-3.424072,48.781937],[-3.424571,48.781639],[-3.424875,48.78157],[-3.425097,48.781562],[-3.425625,48.781637],[-3.426843,48.781753],[-3.426977,48.781754],[-3.427497,48.781831],[-3.427724,48.781843],[-3.428157,48.781917],[-3.428955,48.781802],[-3.429336,48.781719],[-3.429643,48.781694],[-3.43001,48.781446],[-3.430589,48.781195],[-3.430925,48.781093],[-3.431233,48.780965],[-3.431448,48.780914],[-3.431827,48.780768],[-3.432478,48.780235],[-3.432564,48.780128],[-3.432768,48.779594],[-3.432766,48.77948],[-3.432934,48.779018],[-3.433206,48.778684],[-3.43333,48.778369],[-3.433288,48.778119],[-3.433182,48.777874],[-3.433271,48.777578],[-3.43329,48.777182],[-3.433509,48.776893],[-3.433718,48.776785],[-3.433799,48.776694],[-3.433852,48.776491],[-3.433819,48.77635],[-3.433597,48.77607],[-3.432992,48.775597],[-3.432684,48.775415],[-3.432281,48.775324],[-3.431985,48.775222],[-3.431775,48.775035],[-3.431693,48.774879],[-3.431669,48.774699],[-3.431408,48.774633],[-3.431014,48.774666],[-3.430602,48.774662],[-3.430277,48.77472],[-3.42998,48.774677],[-3.429756,48.774514],[-3.429751,48.774176],[-3.429691,48.773947],[-3.429536,48.773722],[-3.429156,48.773431],[-3.428868,48.773273],[-3.42837,48.772857],[-3.428258,48.772627],[-3.428131,48.772272],[-3.427929,48.771914],[-3.427527,48.771535],[-3.427489,48.771365],[-3.427544,48.771211],[-3.427552,48.770856],[-3.427446,48.770533],[-3.427297,48.770289],[-3.427227,48.770035],[-3.426974,48.769607],[-3.426979,48.769434],[-3.427079,48.769185],[-3.427008,48.769025],[-3.426542,48.768858],[-3.4264,48.768749],[-3.425995,48.76855],[-3.425729,48.768379],[-3.42537,48.768042],[-3.425314,48.767903],[-3.425067,48.767749],[-3.424864,48.767351],[-3.424746,48.767209],[-3.424354,48.767009],[-3.424102,48.766663],[-3.423849,48.766368],[-3.423485,48.76602],[-3.423517,48.76591],[-3.423696,48.765837],[-3.423805,48.765643],[-3.423602,48.765358],[-3.423224,48.764896],[-3.422403,48.763789],[-3.422179,48.763518],[-3.421907,48.763042],[-3.421845,48.762735],[-3.421856,48.762538],[-3.421944,48.762068],[-3.422223,48.761692],[-3.422275,48.761578],[-3.422487,48.761304],[-3.422638,48.761178],[-3.422838,48.760787],[-3.423073,48.760488],[-3.423209,48.760253],[-3.423402,48.760015],[-3.42371,48.75956],[-3.423798,48.759388],[-3.424021,48.759146],[-3.42416,48.758867],[-3.424426,48.758514],[-3.424498,48.758264],[-3.424618,48.758227],[-3.424993,48.757754],[-3.425098,48.757549],[-3.425314,48.75726],[-3.425459,48.757015],[-3.42553,48.756981],[-3.425664,48.756716],[-3.42584,48.756518],[-3.426091,48.756144],[-3.426429,48.755694],[-3.42654,48.7555],[-3.426769,48.75521],[-3.426815,48.755106],[-3.427046,48.754827],[-3.427288,48.75459],[-3.427603,48.754354],[-3.428156,48.754055],[-3.428487,48.753916],[-3.428905,48.753786],[-3.429162,48.753741],[-3.429491,48.753624],[-3.430215,48.753473],[-3.430563,48.753369],[-3.430704,48.753356],[-3.43109,48.753232],[-3.431366,48.7532],[-3.431994,48.753019],[-3.432313,48.752974],[-3.433163,48.752779],[-3.43392,48.752531],[-3.434457,48.752413],[-3.434929,48.752151],[-3.435248,48.751767],[-3.435363,48.751725],[-3.435694,48.751815],[-3.436027,48.751836],[-3.43626,48.751731],[-3.436949,48.751588],[-3.437366,48.751588],[-3.437718,48.751474],[-3.438036,48.751242],[-3.438278,48.751181],[-3.439086,48.750926],[-3.439333,48.750894],[-3.4396,48.750907],[-3.440077,48.750861],[-3.440592,48.750866],[-3.44107,48.750837],[-3.441498,48.750866],[-3.442155,48.750868],[-3.442524,48.750924],[-3.442922,48.75092],[-3.443072,48.750884],[-3.443402,48.750872],[-3.444278,48.750949],[-3.444736,48.750935],[-3.445201,48.750966],[-3.445388,48.751012],[-3.445514,48.751129],[-3.445882,48.751162],[-3.446127,48.751219],[-3.446731,48.751217],[-3.446996,48.751116],[-3.44714,48.750989],[-3.447356,48.750917]]},"properties":{"name":"Wanderung auf Liason 34-34A par Lannion von Louannec nach Le Rusquet über Kerlégant, Malfos und Kerizabel am 7. September 2024","type":"hikingTourTrail"},"id":"Y4ODY"},
{"type":"Feature","geometry":{"type":"LineString","coordinates":[[-3.038866,48.790148],[-3.038858,48.790086],[-3.038872,48.790081],[-3.038933,48.790062],[-3.039207,48.789987],[-3.039808,48.789981],[-3.040236,48.789875],[-3.040588,48.789868],[-3.04089,48.78967],[-3.041079,48.78948],[-3.04155,48.789252],[-3.041907,48.788961],[-3.041959,48.788857],[-3.044121,48.78835],[-3.044336,48.788398],[-3.045584,48.788097],[-3.045844,48.788004],[-3.045898,48.787676],[-3.046781,48.787468],[-3.04695,48.787383],[-3.047111,48.786931],[-3.047055,48.786926],[-3.047239,48.786531],[-3.047101,48.786352],[-3.04637,48.785799],[-3.04643,48.785565],[-3.045842,48.784864],[-3.043848,48.78347],[-3.043764,48.783382],[-3.043838,48.783182],[-3.042971,48.782906],[-3.042863,48.782821],[-3.04256,48.782719],[-3.042911,48.781443],[-3.042494,48.781339],[-3.042922,48.780503],[-3.042888,48.780462],[-3.042981,48.780197],[-3.043017,48.779302],[-3.043622,48.778559],[-3.043539,48.778393],[-3.043544,48.77816],[-3.043152,48.777423],[-3.043306,48.777432],[-3.043663,48.776746],[-3.043843,48.776714],[-3.044713,48.777058],[-3.044961,48.776831],[-3.045237,48.77668],[-3.045663,48.776484],[-3.046739,48.77604],[-3.046908,48.776219],[-3.046135,48.776559]]},"properties":{"desc":"ascent=17.6\ndescent=20.2\nopacity=0.9","description":"ascent=17.6\ndescent=20.2\nopacity=0.9"},"id":"g4OTg"},
{"type":"Feature","geometry":{"type":"LineString","coordinates":[[-3.28716,48.834361],[-3.287392,48.834281],[-3.287764,48.834046],[-3.28804,48.833806],[-3.288397,48.833422],[-3.288532,48.833244],[-3.288571,48.833062],[-3.288589,48.83269],[-3.288873,48.832323],[-3.289185,48.832088],[-3.289389,48.831993],[-3.289745,48.831888],[-3.29012,48.83184],[-3.290782,48.831689],[-3.291086,48.831643],[-3.291824,48.831567],[-3.292651,48.831275],[-3.294405,48.830958],[-3.294595,48.830885],[-3.295204,48.830522],[-3.295405,48.830503],[-3.295845,48.830624],[-3.296523,48.830726],[-3.297743,48.830946],[-3.298474,48.830952],[-3.299203,48.831027],[-3.299608,48.831142],[-3.300182,48.831434],[-3.300052,48.831648],[-3.300012,48.831792],[-3.300082,48.832137],[-3.300595,48.832327],[-3.301078,48.832575],[-3.301351,48.832872],[-3.301491,48.832966],[-3.302706,48.83344],[-3.303099,48.833608],[-3.303532,48.833693],[-3.303997,48.83373],[-3.304178,48.833712],[-3.304518,48.833589],[-3.305646,48.833066],[-3.305813,48.833043],[-3.30583,48.832709],[-3.306071,48.832673],[-3.308419,48.832726],[-3.308678,48.833204],[-3.308866,48.833487],[-3.309213,48.833727],[-3.309397,48.833936],[-3.309593,48.834085],[-3.309842,48.8342],[-3.310545,48.834169],[-3.310918,48.834103],[-3.311061,48.8339]]},"properties":{"desc":"ascent=54.8\ndescent=39.5\nopacity=0.9","description":"ascent=54.8\ndescent=39.5\nopacity=0.9"},"id":"E4Mzc"}
]}
